{"type":"FeatureCollection","crs":{"type":"name","properties":{"name":"urn:ogc:def:crs:EPSG::3414"}},"features":[{"type":"Feature","properties":{"SCH_NAME":"ADMIRALTY PRIMARY SCHOOL","ADDRESS":"11 WOODLANDS CIRCLE","SCH_TYPE":"primary","SCH_CODE":"SC017","SCH_RANK":null,"POSTCODE":"738907"},"geometry":{"type":"Point","coordinates":[103.8000401198728,1.4426347906914818]}},{"type":"Feature","properties":{"SCH_NAME":"ADMIRALTY SECONDARY SCHOOL","ADDRESS":"31 WOODLANDS CRESCENT","SCH_TYPE":"secondary","SCH_CODE":"SC197","SCH_RANK":null,"POSTCODE":"737916"},"geometry":{"type":"Point","coordinates":[103.80239819665283,1.4458906895067722]}},{"type":"Feature","properties":{"SCH_NAME":"AHMAD IBRAHIM PRIMARY SCHOOL","ADDRESS":"10 YISHUN STREET 11","SCH_TYPE":"primary","SCH_CODE":"SC018","SCH_RANK":null,"POSTCODE":"768643"},"geometry":{"type":"Point","coordinates":[103.83292428943024,1.433681206924606]}},{"type":"Feature","properties":{"SCH_NAME":"AHMAD IBRAHIM SECONDARY SCHOOL","ADDRESS":"751 YISHUN AVENUE 7","SCH_TYPE":"secondary","SCH_CODE":"SC198","SCH_RANK":null,"POSTCODE":"768928"},"geometry":{"type":"Point","coordinates":[103.82971526472689,1.4360616270196944]}},{"type":"Feature","properties":{"SCH_NAME":"AI TONG SCHOOL","ADDRESS":"100 BRIGHT HILL DRIVE","SCH_TYPE":"primary","SCH_CODE":"SC180","SCH_RANK":"1","POSTCODE":"579646"},"geometry":{"type":"Point","coordinates":[103.83307565487293,1.3607363644527641]}},{"type":"Feature","properties":{"SCH_NAME":"ALEXANDRA PRIMARY SCHOOL","ADDRESS":"2A Prince Charles Crescent","SCH_TYPE":"primary","SCH_CODE":"SC019","SCH_RANK":null,"POSTCODE":"159016"},"geometry":{"type":"Point","coordinates":[103.82394079352414,1.291299034888273]}},{"type":"Feature","properties":{"SCH_NAME":"ANCHOR GREEN PRIMARY SCHOOL","ADDRESS":"31 Anchorvale Drive","SCH_TYPE":"primary","SCH_CODE":"SC020","SCH_RANK":null,"POSTCODE":"544969"},"geometry":{"type":"Point","coordinates":[103.88725608098287,1.390662477844211]}},{"type":"Feature","properties":{"SCH_NAME":"ANDERSON JUNIOR COLLEGE","ADDRESS":"4500 ANG MO KIO AVENUE 6","SCH_TYPE":"JC","SCH_CODE":"SC001","SCH_RANK":null,"POSTCODE":"569843"},"geometry":{"type":"Point","coordinates":[103.84576093554007,1.3789440806965194]}},{"type":"Feature","properties":{"SCH_NAME":"ANDERSON PRIMARY SCHOOL","ADDRESS":"6 ANG MO KIO AVE 2 ANDERSON PRIMARY SCHOOL","SCH_TYPE":"primary","SCH_CODE":"SC021","SCH_RANK":null,"POSTCODE":"569948"},"geometry":{"type":"Point","coordinates":[103.83580524668304,1.3761462171313987]}},{"type":"Feature","properties":{"SCH_NAME":"ANDERSON SECONDARY SCHOOL","ADDRESS":"10 ANG MO KIO STREET 53","SCH_TYPE":"secondary","SCH_CODE":"SC199","SCH_RANK":null,"POSTCODE":"569206"},"geometry":{"type":"Point","coordinates":[103.85155410700573,1.3743400173260008]}},{"type":"Feature","properties":{"SCH_NAME":"ANG MO KIO PRIMARY SCHOOL","ADDRESS":"20 ANG MO KIO AVENUE 3 ANG MO KIO PRIMARY SCHOOL","SCH_TYPE":"primary","SCH_CODE":"SC022","SCH_RANK":null,"POSTCODE":"569920"},"geometry":{"type":"Point","coordinates":[103.83963085904384,1.369321766114549]}},{"type":"Feature","properties":{"SCH_NAME":"ANG MO KIO SECONDARY SCHOOL","ADDRESS":"6 ANG MO KIO STREET 22","SCH_TYPE":"secondary","SCH_CODE":"SC200","SCH_RANK":null,"POSTCODE":"569362"},"geometry":{"type":"Point","coordinates":[103.84260037430649,1.3673590037502554]}},{"type":"Feature","properties":{"SCH_NAME":"ANGLICAN HIGH SCHOOL","ADDRESS":"600 UPPER CHANGI ROAD","SCH_TYPE":"secondary","SCH_CODE":"SC329","SCH_RANK":null,"POSTCODE":"487012"},"geometry":{"type":"Point","coordinates":[103.9410621220312,1.3306245462440889]}},{"type":"Feature","properties":{"SCH_NAME":"ANGLO-CHINESE JUNIOR COLLEGE","ADDRESS":"25 DOVER CLOSE EAST","SCH_TYPE":"JC","SCH_CODE":"SC002","SCH_RANK":null,"POSTCODE":"139745"},"geometry":{"type":"Point","coordinates":[103.78526297581166,1.3032879541366438]}},{"type":"Feature","properties":{"SCH_NAME":"ANGLO-CHINESE SCHOOL (BARKER ROAD)","ADDRESS":"60 BARKER ROAD","SCH_TYPE":"secondary","SCH_CODE":"SC330","SCH_RANK":null,"POSTCODE":"309919"},"geometry":{"type":"Point","coordinates":[103.83577268995559,1.319616491674055]}},{"type":"Feature","properties":{"SCH_NAME":"ANGLO-CHINESE SCHOOL (INDEPENDENT)","ADDRESS":"121 DOVER ROAD","SCH_TYPE":"secondary","SCH_CODE":"SC331","SCH_RANK":"IP","POSTCODE":"139650"},"geometry":{"type":"Point","coordinates":[103.78016965468228,1.3021487698144065]}},{"type":"Feature","properties":{"SCH_NAME":"ANGLO-CHINESE SCHOOL (JUNIOR)","ADDRESS":"16 WINSTEDT ROAD","SCH_TYPE":"primary","SCH_CODE":"SC181","SCH_RANK":null,"POSTCODE":"227988"},"geometry":{"type":"Point","coordinates":[103.8419787885585,1.309003456076594]}},{"type":"Feature","properties":{"SCH_NAME":"ANGLO-CHINESE SCHOOL (PRIMARY)","ADDRESS":"50 BARKER ROAD","SCH_TYPE":"primary","SCH_CODE":"SC023","SCH_RANK":"1","POSTCODE":"309918"},"geometry":{"type":"Point","coordinates":[103.83560973192553,1.3183705459181236]}},{"type":"Feature","properties":{"SCH_NAME":"ASSUMPTION ENGLISH SCHOOL","ADDRESS":"121 QUEENSWAY","SCH_TYPE":"secondary","SCH_CODE":"SC332","SCH_RANK":null,"POSTCODE":"149059"},"geometry":{"type":"Point","coordinates":[103.80026460741297,1.3020508211933854]}},{"type":"Feature","properties":{"SCH_NAME":"ASSUMPTION PATHWAY SCHOOL","ADDRESS":"30 Cashew Road","SCH_TYPE":"secondary","SCH_CODE":"SC333","SCH_RANK":null,"POSTCODE":"679697"},"geometry":{"type":"Point","coordinates":[103.76595913078887,1.3696707046396228]}},{"type":"Feature","properties":{"SCH_NAME":"BALESTIER HILL PRIMARY SCHOOL","ADDRESS":"565 BALESTIER ROAD","SCH_TYPE":"primary","SCH_CODE":"SC024","SCH_RANK":null,"POSTCODE":"329927"},"geometry":{"type":"Point","coordinates":[103.84431119763913,1.3258175185497272]}},{"type":"Feature","properties":{"SCH_NAME":"BALESTIER HILL SECONDARY SCHOOL","ADDRESS":"11 NOVENA RISE","SCH_TYPE":"secondary","SCH_CODE":"SC201","SCH_RANK":null,"POSTCODE":"307516"},"geometry":{"type":"Point","coordinates":[103.84458247615744,1.3247352334570615]}},{"type":"Feature","properties":{"SCH_NAME":"BARTLEY SECONDARY SCHOOL","ADDRESS":"10 JALAN BUNGA RAMPAI ROAD","SCH_TYPE":"secondary","SCH_CODE":"SC202","SCH_RANK":null,"POSTCODE":"538403"},"geometry":{"type":"Point","coordinates":[103.88245503004084,1.3400174204971518]}},{"type":"Feature","properties":{"SCH_NAME":"BEACON PRIMARY SCHOOL","ADDRESS":"36 Bukit Panjang Ring Road","SCH_TYPE":"primary","SCH_CODE":"SC025","SCH_RANK":null,"POSTCODE":"679944"},"geometry":{"type":"Point","coordinates":[103.77375436401503,1.3842366771166175]}},{"type":"Feature","properties":{"SCH_NAME":"BEATTY SECONDARY SCHOOL","ADDRESS":"1 TOA PAYOH NORTH","SCH_TYPE":"secondary","SCH_CODE":"SC203","SCH_RANK":null,"POSTCODE":"318990"},"geometry":{"type":"Point","coordinates":[103.85201849783464,1.3417905117737565]}},{"type":"Feature","properties":{"SCH_NAME":"BEDOK GREEN PRIMARY SCHOOL","ADDRESS":"1 BEDOK SOUTH AVE 2","SCH_TYPE":"primary","SCH_CODE":"SC026","SCH_RANK":null,"POSTCODE":"469317"},"geometry":{"type":"Point","coordinates":[103.93788995739725,1.3234613058356661]}},{"type":"Feature","properties":{"SCH_NAME":"BEDOK GREEN SECONDARY SCHOOL","ADDRESS":"360 BEDOK NORTH AVE 3","SCH_TYPE":"secondary","SCH_CODE":"SC204","SCH_RANK":null,"POSTCODE":"469722"},"geometry":{"type":"Point","coordinates":[103.93551315456035,1.333826680538045]}},{"type":"Feature","properties":{"SCH_NAME":"BEDOK NORTH SECONDARY SCHOOL","ADDRESS":"20 JALAN DAMAI","SCH_TYPE":"secondary","SCH_CODE":"SC205","SCH_RANK":null,"POSTCODE":"419612"},"geometry":{"type":"Point","coordinates":[103.9102930616124,1.3342742785098283]}},{"type":"Feature","properties":{"SCH_NAME":"BEDOK SOUTH SECONDARY SCHOOL","ADDRESS":"1 JALAN LANGGAR BEDOK","SCH_TYPE":"secondary","SCH_CODE":"SC206","SCH_RANK":null,"POSTCODE":"468585"},"geometry":{"type":"Point","coordinates":[103.95098913897382,1.3251365519016896]}},{"type":"Feature","properties":{"SCH_NAME":"BEDOK TOWN SECONDARY SCHOOL","ADDRESS":"232 BEDOK NORTH STREET 3","SCH_TYPE":"secondary","SCH_CODE":"SC207","SCH_RANK":null,"POSTCODE":"469626"},"geometry":{"type":"Point","coordinates":[103.92224563926555,1.3321973496121124]}},{"type":"Feature","properties":{"SCH_NAME":"BEDOK VIEW SECONDARY SCHOOL","ADDRESS":"6 BEDOK SOUTH AVENUE 3","SCH_TYPE":"secondary","SCH_CODE":"SC208","SCH_RANK":null,"POSTCODE":"469293"},"geometry":{"type":"Point","coordinates":[103.94347522544975,1.3239993963785173]}},{"type":"Feature","properties":{"SCH_NAME":"BEDOK WEST PRIMARY SCHOOL","ADDRESS":"50 BEDOK RESERVOIR CRESCENT","SCH_TYPE":"primary","SCH_CODE":"SC027","SCH_RANK":null,"POSTCODE":"479225"},"geometry":{"type":"Point","coordinates":[103.92028405728001,1.3351575329561054]}},{"type":"Feature","properties":{"SCH_NAME":"BENDEMEER PRIMARY SCHOOL","ADDRESS":"91 BENDEMEER ROAD","SCH_TYPE":"primary","SCH_CODE":"SC028","SCH_RANK":null,"POSTCODE":"339948"},"geometry":{"type":"Point","coordinates":[103.86535132988895,1.3222084754594539]}},{"type":"Feature","properties":{"SCH_NAME":"BENDEMEER SECONDARY SCHOOL","ADDRESS":"1 ST WILFRED ROAD","SCH_TYPE":"secondary","SCH_CODE":"SC209","SCH_RANK":null,"POSTCODE":"327919"},"geometry":{"type":"Point","coordinates":[103.86097028345173,1.3246111129699127]}},{"type":"Feature","properties":{"SCH_NAME":"BISHAN PARK SECONDARY SCHOOL","ADDRESS":"2 SIN MING WALK","SCH_TYPE":"secondary","SCH_CODE":"SC210","SCH_RANK":null,"POSTCODE":"575565"},"geometry":{"type":"Point","coordinates":[103.83342674224441,1.3653348988626346]}},{"type":"Feature","properties":{"SCH_NAME":"BLANGAH RISE PRIMARY SCHOOL","ADDRESS":"91 TELOK BLANGAH HEIGHTS","SCH_TYPE":"primary","SCH_CODE":"SC029","SCH_RANK":null,"POSTCODE":"109100"},"geometry":{"type":"Point","coordinates":[103.80863921158054,1.2761303042497267]}},{"type":"Feature","properties":{"SCH_NAME":"BOON LAY GARDEN PRIMARY SCHOOL","ADDRESS":"20 BOON LAY DRIVE","SCH_TYPE":"primary","SCH_CODE":"SC030","SCH_RANK":null,"POSTCODE":"649930"},"geometry":{"type":"Point","coordinates":[103.71296900455464,1.3428467073845411]}},{"type":"Feature","properties":{"SCH_NAME":"BOON LAY SECONDARY SCHOOL","ADDRESS":"11 JURONG WEST STREET 65","SCH_TYPE":"secondary","SCH_CODE":"SC211","SCH_RANK":null,"POSTCODE":"648354"},"geometry":{"type":"Point","coordinates":[103.7018900263594,1.3427226913576868]}},{"type":"Feature","properties":{"SCH_NAME":"BOWEN SECONDARY SCHOOL","ADDRESS":"2 LORONG NAPIRI","SCH_TYPE":"secondary","SCH_CODE":"SC212","SCH_RANK":null,"POSTCODE":"547529"},"geometry":{"type":"Point","coordinates":[103.87745903982994,1.3707510730410166]}},{"type":"Feature","properties":{"SCH_NAME":"BROADRICK SECONDARY SCHOOL","ADDRESS":"61 Dakota Crescent","SCH_TYPE":"secondary","SCH_CODE":"SC213","SCH_RANK":null,"POSTCODE":"399935"},"geometry":{"type":"Point","coordinates":[103.88691744083688,1.3070505125192136]}},{"type":"Feature","properties":{"SCH_NAME":"BUKIT BATOK SECONDARY SCHOOL","ADDRESS":"50 BUKIT BATOK WEST AVE 8","SCH_TYPE":"secondary","SCH_CODE":"SC214","SCH_RANK":null,"POSTCODE":"658962"},"geometry":{"type":"Point","coordinates":[103.74087370491785,1.3484908564110951]}},{"type":"Feature","properties":{"SCH_NAME":"BUKIT MERAH SECONDARY SCHOOL","ADDRESS":"10 LENGKOK BAHRU","SCH_TYPE":"secondary","SCH_CODE":"SC215","SCH_RANK":null,"POSTCODE":"159050"},"geometry":{"type":"Point","coordinates":[103.81301597096538,1.2856796681324012]}},{"type":"Feature","properties":{"SCH_NAME":"BUKIT PANJANG GOVT. HIGH SCHOOL","ADDRESS":"7 CHOA CHU KANG AVE 4","SCH_TYPE":"secondary","SCH_CODE":"SC334","SCH_RANK":null,"POSTCODE":"689809"},"geometry":{"type":"Point","coordinates":[103.73835387996988,1.382225571431049]}},{"type":"Feature","properties":{"SCH_NAME":"BUKIT PANJANG PRIMARY SCHOOL","ADDRESS":"109 CASHEW ROAD","SCH_TYPE":"primary","SCH_CODE":"SC031","SCH_RANK":null,"POSTCODE":"679676"},"geometry":{"type":"Point","coordinates":[103.76931748348377,1.3734721924441873]}},{"type":"Feature","properties":{"SCH_NAME":"BUKIT TIMAH PRIMARY SCHOOL","ADDRESS":"111 Lorong Kismis Bukit Timah Primary School","SCH_TYPE":"primary","SCH_CODE":"SC032","SCH_RANK":null,"POSTCODE":"598112"},"geometry":{"type":"Point","coordinates":[103.76685533588608,1.337749866654855]}},{"type":"Feature","properties":{"SCH_NAME":"BUKIT VIEW PRIMARY SCHOOL","ADDRESS":"18 BUKIT BATOK STREET 21","SCH_TYPE":"primary","SCH_CODE":"SC033","SCH_RANK":null,"POSTCODE":"659634"},"geometry":{"type":"Point","coordinates":[103.75330356584728,1.3462546963207]}},{"type":"Feature","properties":{"SCH_NAME":"BUKIT VIEW SECONDARY SCHOOL","ADDRESS":"16 BUKIT BATOK STREET 21","SCH_TYPE":"secondary","SCH_CODE":"SC216","SCH_RANK":null,"POSTCODE":"659633"},"geometry":{"type":"Point","coordinates":[103.75227776576335,1.3457231514823509]}},{"type":"Feature","properties":{"SCH_NAME":"CANBERRA PRIMARY SCHOOL","ADDRESS":"21 ADMIRALTY DRIVE","SCH_TYPE":"primary","SCH_CODE":"SC034","SCH_RANK":null,"POSTCODE":"757714"},"geometry":{"type":"Point","coordinates":[103.81583947685404,1.4513046755078665]}},{"type":"Feature","properties":{"SCH_NAME":"CANBERRA SECONDARY SCHOOL","ADDRESS":"51 SEMBAWANG DRIVE","SCH_TYPE":"secondary","SCH_CODE":"SC217","SCH_RANK":null,"POSTCODE":"757699"},"geometry":{"type":"Point","coordinates":[103.81447068900059,1.453279711327089]}},{"type":"Feature","properties":{"SCH_NAME":"CANOSSA CONVENT PRIMARY SCHOOL","ADDRESS":"107 CIRCUIT ROAD","SCH_TYPE":"primary","SCH_CODE":"SC035","SCH_RANK":null,"POSTCODE":"379481"},"geometry":{"type":"Point","coordinates":[103.88784912459727,1.328215002720824]}},{"type":"Feature","properties":{"SCH_NAME":"CANTONMENT PRIMARY SCHOOL","ADDRESS":"1 Cantonment Close","SCH_TYPE":"primary","SCH_CODE":"SC036","SCH_RANK":null,"POSTCODE":"A88256"},"geometry":{"type":"Point","coordinates":[103.83997978330996,1.2755963674817241]}},{"type":"Feature","properties":{"SCH_NAME":"CASUARINA PRIMARY SCHOOL","ADDRESS":"30 PASIR RIS ST 41","SCH_TYPE":"primary","SCH_CODE":"SC037","SCH_RANK":null,"POSTCODE":"518935"},"geometry":{"type":"Point","coordinates":[103.9572912731566,1.3727890165849164]}},{"type":"Feature","properties":{"SCH_NAME":"CATHOLIC HIGH SCHOOL","ADDRESS":"9 BISHAN STREET 22","SCH_TYPE":"primary","SCH_CODE":"SC335","SCH_RANK":"1","POSTCODE":"579767"},"geometry":{"type":"Point","coordinates":[103.84487467702552,1.354723074260821]}},{"type":"Feature","properties":{"SCH_NAME":"CATHOLIC HIGH SCHOOL","ADDRESS":"9 BISHAN STREET 22","SCH_TYPE":"secondary","SCH_CODE":"SC335","SCH_RANK":"IP","POSTCODE":"579767"},"geometry":{"type":"Point","coordinates":[103.84487467702552,1.354723074260821]}},{"type":"Feature","properties":{"SCH_NAME":"CATHOLIC JUNIOR COLLEGE","ADDRESS":"129 WHITLEY ROAD","SCH_TYPE":"JC","SCH_CODE":"SC003","SCH_RANK":null,"POSTCODE":"297822"},"geometry":{"type":"Point","coordinates":[103.83555142958603,1.3246487710513453]}},{"type":"Feature","properties":{"SCH_NAME":"CEDAR GIRLS' SECONDARY SCHOOL","ADDRESS":"1 CEDAR AVENUE","SCH_TYPE":"secondary","SCH_CODE":"SC218","SCH_RANK":"IP","POSTCODE":"349692"},"geometry":{"type":"Point","coordinates":[103.87419120365148,1.3340203075854276]}},{"type":"Feature","properties":{"SCH_NAME":"CEDAR PRIMARY SCHOOL","ADDRESS":"15 CEDAR AVENUE","SCH_TYPE":"primary","SCH_CODE":"SC038","SCH_RANK":null,"POSTCODE":"349700"},"geometry":{"type":"Point","coordinates":[103.87549127874186,1.3356412228749306]}},{"type":"Feature","properties":{"SCH_NAME":"CHANGKAT CHANGI SECONDARY SCHOOL","ADDRESS":"23 SIMEI ST 3","SCH_TYPE":"secondary","SCH_CODE":"SC219","SCH_RANK":null,"POSTCODE":"529894"},"geometry":{"type":"Point","coordinates":[103.95324552554311,1.3395063004110404]}},{"type":"Feature","properties":{"SCH_NAME":"CHANGKAT PRIMARY SCHOOL","ADDRESS":"11 SIMEI ST 3","SCH_TYPE":"primary","SCH_CODE":"SC039","SCH_RANK":null,"POSTCODE":"529896"},"geometry":{"type":"Point","coordinates":[103.95208011376782,1.3402316391064362]}},{"type":"Feature","properties":{"SCH_NAME":"CHESTNUT DRIVE SECONDARY SCHOOL","ADDRESS":"58 CHESTNUT DRIVE","SCH_TYPE":"secondary","SCH_CODE":"SC220","SCH_RANK":null,"POSTCODE":"679301"},"geometry":{"type":"Point","coordinates":[103.77085555706185,1.3686508369933712]}},{"type":"Feature","properties":{"SCH_NAME":"CHIJ (KATONG) PRIMARY","ADDRESS":"17 MARTIA ROAD","SCH_TYPE":"primary","SCH_CODE":"SC040","SCH_RANK":null,"POSTCODE":"424821"},"geometry":{"type":"Point","coordinates":[103.91110562074262,1.306485353015266]}},{"type":"Feature","properties":{"SCH_NAME":"CHIJ (KELLOCK)","ADDRESS":"1 Bukit Teresa Road","SCH_TYPE":"secondary","SCH_CODE":"SC336","SCH_RANK":null,"POSTCODE":"099757"},"geometry":{"type":"Point","coordinates":[103.8280695662709,1.2748446001329607]}},{"type":"Feature","properties":{"SCH_NAME":"CHIJ KATONG CONVENT","ADDRESS":"346 MARINE TERRACE","SCH_TYPE":"secondary","SCH_CODE":"SC337","SCH_RANK":null,"POSTCODE":"449150"},"geometry":{"type":"Point","coordinates":[103.91709360273143,1.306443124484108]}},{"type":"Feature","properties":{"SCH_NAME":"CHIJ OUR LADY OF GOOD COUNSEL","ADDRESS":"2C Burghley Drive","SCH_TYPE":"secondary","SCH_CODE":"SC338","SCH_RANK":null,"POSTCODE":"558979"},"geometry":{"type":"Point","coordinates":[103.86400812329718,1.3574271736256618]}},{"type":"Feature","properties":{"SCH_NAME":"CHIJ OUR LADY OF THE NATIVITY","ADDRESS":"1257 UPPER SERANGOON ROAD","SCH_TYPE":"secondary","SCH_CODE":"SC339","SCH_RANK":null,"POSTCODE":"534793"},"geometry":{"type":"Point","coordinates":[103.8976593844378,1.3731740162595594]}},{"type":"Feature","properties":{"SCH_NAME":"CHIJ OUR LADY QUEEN OF PEACE","ADDRESS":"4 Chestnut Drive","SCH_TYPE":"secondary","SCH_CODE":"SC340","SCH_RANK":null,"POSTCODE":"679287"},"geometry":{"type":"Point","coordinates":[103.76769481978214,1.3667580146686802]}},{"type":"Feature","properties":{"SCH_NAME":"CHIJ PRIMARY (TOA PAYOH)","ADDRESS":"430 Lorong 1 Toa Payoh","SCH_TYPE":"primary","SCH_CODE":"SC041","SCH_RANK":null,"POSTCODE":"319759"},"geometry":{"type":"Point","coordinates":[103.84321235190741,1.3402004655475739]}},{"type":"Feature","properties":{"SCH_NAME":"CHIJ SECONDARY (TOA PAYOH)","ADDRESS":"626 LORONG 1 TOA PAYOH","SCH_TYPE":"secondary","SCH_CODE":"SC221","SCH_RANK":null,"POSTCODE":"319764"},"geometry":{"type":"Point","coordinates":[103.84271944740934,1.3324621295446044]}},{"type":"Feature","properties":{"SCH_NAME":"CHIJ ST. JOSEPH'S CONVENT","ADDRESS":"62 SENG KANG EAST WAY","SCH_TYPE":"secondary","SCH_CODE":"SC341","SCH_RANK":null,"POSTCODE":"548595"},"geometry":{"type":"Point","coordinates":[103.90246322944311,1.391752280989627]}},{"type":"Feature","properties":{"SCH_NAME":"CHIJ ST. NICHOLAS GIRLS' SCHOOL","ADDRESS":"501 ANG MO KIO STREET 13","SCH_TYPE":"primary","SCH_CODE":"SC342","SCH_RANK":"1","POSTCODE":"569405"},"geometry":{"type":"Point","coordinates":[103.83448722905511,1.3739677493657843]}},{"type":"Feature","properties":{"SCH_NAME":"CHIJ ST. NICHOLAS GIRLS' SCHOOL","ADDRESS":"501 ANG MO KIO STREET 13","SCH_TYPE":"secondary","SCH_CODE":"SC342","SCH_RANK":"IP","POSTCODE":"569405"},"geometry":{"type":"Point","coordinates":[103.83448722905511,1.3739677493657843]}},{"type":"Feature","properties":{"SCH_NAME":"CHIJ ST. THERESA'S CONVENT","ADDRESS":"160 LOWER DELTA ROAD","SCH_TYPE":"secondary","SCH_CODE":"SC343","SCH_RANK":null,"POSTCODE":"099138"},"geometry":{"type":"Point","coordinates":[103.82244070209906,1.2753517755554862]}},{"type":"Feature","properties":{"SCH_NAME":"CHONG BOON SECONDARY SCHOOL","ADDRESS":"2 ANG MO KIO STREET 44","SCH_TYPE":"secondary","SCH_CODE":"SC222","SCH_RANK":null,"POSTCODE":"569250"},"geometry":{"type":"Point","coordinates":[103.85801093903005,1.3636351761841115]}},{"type":"Feature","properties":{"SCH_NAME":"CHONGFU SCHOOL","ADDRESS":"170 YISHUN AVENUE 6","SCH_TYPE":"primary","SCH_CODE":"SC344","SCH_RANK":"1","POSTCODE":"768959"},"geometry":{"type":"Point","coordinates":[103.83907070797991,1.4384623114207546]}},{"type":"Feature","properties":{"SCH_NAME":"CHONGZHENG PRIMARY SCHOOL","ADDRESS":"1 TAMPINES STREET 21","SCH_TYPE":"primary","SCH_CODE":"SC042","SCH_RANK":null,"POSTCODE":"529392"},"geometry":{"type":"Point","coordinates":[103.95122524914616,1.3505947692618694]}},{"type":"Feature","properties":{"SCH_NAME":"CHRIST CHURCH SECONDARY SCHOOL","ADDRESS":"20 WOODLANDS DRIVE 17","SCH_TYPE":"secondary","SCH_CODE":"SC223","SCH_RANK":null,"POSTCODE":"737924"},"geometry":{"type":"Point","coordinates":[103.79338186030479,1.426447680190401]}},{"type":"Feature","properties":{"SCH_NAME":"CHUA CHU KANG PRIMARY SCHOOL","ADDRESS":"20 CHOA CHU KANG AVENUE 2","SCH_TYPE":"primary","SCH_CODE":"SC043","SCH_RANK":null,"POSTCODE":"689905"},"geometry":{"type":"Point","coordinates":[103.74186054857321,1.3777432833243564]}},{"type":"Feature","properties":{"SCH_NAME":"CHUA CHU KANG SECONDARY SCHOOL","ADDRESS":"3 TECK WHYE CRESCENT","SCH_TYPE":"secondary","SCH_CODE":"SC224","SCH_RANK":null,"POSTCODE":"688845"},"geometry":{"type":"Point","coordinates":[103.75187829046239,1.383190292808078]}},{"type":"Feature","properties":{"SCH_NAME":"CHUNG CHENG HIGH SCHOOL (MAIN)","ADDRESS":"50 GOODMAN ROAD","SCH_TYPE":"secondary","SCH_CODE":"SC345","SCH_RANK":null,"POSTCODE":"439012"},"geometry":{"type":"Point","coordinates":[103.89073656144386,1.3053811311693533]}},{"type":"Feature","properties":{"SCH_NAME":"CHUNG CHENG HIGH SCHOOL (YISHUN)","ADDRESS":"11 Yishun St 61","SCH_TYPE":"secondary","SCH_CODE":"SC346","SCH_RANK":null,"POSTCODE":"768547"},"geometry":{"type":"Point","coordinates":[103.83738880968791,1.4192243340931585]}},{"type":"Feature","properties":{"SCH_NAME":"CLEMENTI PRIMARY SCHOOL","ADDRESS":"8 CLEMENTI AVE 3","SCH_TYPE":"primary","SCH_CODE":"SC044","SCH_RANK":null,"POSTCODE":"129903"},"geometry":{"type":"Point","coordinates":[103.76314701707709,1.3154909030081356]}},{"type":"Feature","properties":{"SCH_NAME":"CLEMENTI TOWN SECONDARY SCHOOL","ADDRESS":"10 CLEMENTI AVE 3","SCH_TYPE":"secondary","SCH_CODE":"SC225","SCH_RANK":null,"POSTCODE":"129904"},"geometry":{"type":"Point","coordinates":[103.76202059902803,1.3155391295404195]}},{"type":"Feature","properties":{"SCH_NAME":"CLEMENTI WOODS SECONDARY SCHOOL","ADDRESS":"170 WEST COAST ROAD","SCH_TYPE":"secondary","SCH_CODE":"SC226","SCH_RANK":null,"POSTCODE":"127443"},"geometry":{"type":"Point","coordinates":[103.76511862446078,1.306116284704898]}},{"type":"Feature","properties":{"SCH_NAME":"COMMONWEALTH SECONDARY SCHOOL","ADDRESS":"698 WEST COAST ROAD","SCH_TYPE":"secondary","SCH_CODE":"SC227","SCH_RANK":null,"POSTCODE":"608784"},"geometry":{"type":"Point","coordinates":[103.74575548563303,1.3191280782411416]}},{"type":"Feature","properties":{"SCH_NAME":"COMPASSVALE PRIMARY SCHOOL","ADDRESS":"21 COMPASSVALE ST","SCH_TYPE":"primary","SCH_CODE":"SC045","SCH_RANK":null,"POSTCODE":"545091"},"geometry":{"type":"Point","coordinates":[103.89786476750703,1.3945298318876407]}},{"type":"Feature","properties":{"SCH_NAME":"COMPASSVALE SECONDARY SCHOOL","ADDRESS":"51 COMPASSVALE CRESCENT","SCH_TYPE":"secondary","SCH_CODE":"SC228","SCH_RANK":null,"POSTCODE":"545083"},"geometry":{"type":"Point","coordinates":[103.89984716441681,1.3961408393063521]}},{"type":"Feature","properties":{"SCH_NAME":"CONCORD PRIMARY SCHOOL","ADDRESS":"3 CHOA CHU KANG AVE 4","SCH_TYPE":"primary","SCH_CODE":"SC046","SCH_RANK":null,"POSTCODE":"689814"},"geometry":{"type":"Point","coordinates":[103.73622544110168,1.3800080620555266]}},{"type":"Feature","properties":{"SCH_NAME":"CORAL PRIMARY SCHOOL","ADDRESS":"20 PASIR RIS ST 51","SCH_TYPE":"primary","SCH_CODE":"SC047","SCH_RANK":null,"POSTCODE":"518902"},"geometry":{"type":"Point","coordinates":[103.9507419973932,1.3684134941972221]}},{"type":"Feature","properties":{"SCH_NAME":"CORAL SECONDARY SCHOOL","ADDRESS":"31 PASIR RIS STREET 51","SCH_TYPE":"secondary","SCH_CODE":"SC229","SCH_RANK":null,"POSTCODE":"518901"},"geometry":{"type":"Point","coordinates":[103.94941979223408,1.3677186993104344]}},{"type":"Feature","properties":{"SCH_NAME":"CORPORATION PRIMARY SCHOOL","ADDRESS":"31 JURONG WEST STREET 24","SCH_TYPE":"primary","SCH_CODE":"SC048","SCH_RANK":null,"POSTCODE":"648347"},"geometry":{"type":"Point","coordinates":[103.70759372446534,1.3509977986006758]}},{"type":"Feature","properties":{"SCH_NAME":"CRESCENT GIRLS' SCHOOL","ADDRESS":"357 TANGLIN ROAD","SCH_TYPE":"secondary","SCH_CODE":"SC347","SCH_RANK":null,"POSTCODE":"247961"},"geometry":{"type":"Point","coordinates":[103.81819816317538,1.2937902924433673]}},{"type":"Feature","properties":{"SCH_NAME":"CREST SECONDARY SCHOOL","ADDRESS":"561 Jurong East Street 24","SCH_TYPE":"secondary","SCH_CODE":"SC230","SCH_RANK":null,"POSTCODE":"609561"},"geometry":{"type":"Point","coordinates":[103.74254305227602,1.3435550230884106]}},{"type":"Feature","properties":{"SCH_NAME":"DA QIAO PRIMARY SCHOOL","ADDRESS":"8 ANG MO KIO STREET 54","SCH_TYPE":"primary","SCH_CODE":"SC049","SCH_RANK":null,"POSTCODE":"569185"},"geometry":{"type":"Point","coordinates":[103.85899362702527,1.3718115235895867]}},{"type":"Feature","properties":{"SCH_NAME":"DAMAI PRIMARY SCHOOL","ADDRESS":"52 BEDOK RESERVOIR CRESCENT","SCH_TYPE":"primary","SCH_CODE":"SC050","SCH_RANK":null,"POSTCODE":"479226"},"geometry":{"type":"Point","coordinates":[103.92121184726776,1.3356070443742678]}},{"type":"Feature","properties":{"SCH_NAME":"DAMAI SECONDARY SCHOOL","ADDRESS":"4800 BEDOK RESERVOIR ROAD","SCH_TYPE":"secondary","SCH_CODE":"SC231","SCH_RANK":null,"POSTCODE":"479229"},"geometry":{"type":"Point","coordinates":[103.9264170648173,1.3375454791505441]}},{"type":"Feature","properties":{"SCH_NAME":"DAZHONG PRIMARY SCHOOL","ADDRESS":"35 BUKIT BATOK STREET 31","SCH_TYPE":"primary","SCH_CODE":"SC051","SCH_RANK":null,"POSTCODE":"659441"},"geometry":{"type":"Point","coordinates":[103.74847210754865,1.3591797445494505]}},{"type":"Feature","properties":{"SCH_NAME":"DE LA SALLE SCHOOL","ADDRESS":"11 Choa Chu Kang St 52","SCH_TYPE":"primary","SCH_CODE":"SC182","SCH_RANK":null,"POSTCODE":"689285"},"geometry":{"type":"Point","coordinates":[103.74320181323807,1.3947078296961333]}},{"type":"Feature","properties":{"SCH_NAME":"DEYI SECONDARY SCHOOL","ADDRESS":"1 ANG MO KIO STREET 42","SCH_TYPE":"secondary","SCH_CODE":"SC232","SCH_RANK":null,"POSTCODE":"569277"},"geometry":{"type":"Point","coordinates":[103.85228109443656,1.3666223653291307]}},{"type":"Feature","properties":{"SCH_NAME":"DUNEARN SECONDARY SCHOOL","ADDRESS":"21 BUKIT BATOK WEST AVENUE 2","SCH_TYPE":"secondary","SCH_CODE":"SC233","SCH_RANK":null,"POSTCODE":"659204"},"geometry":{"type":"Point","coordinates":[103.7449683948165,1.3636620991713793]}},{"type":"Feature","properties":{"SCH_NAME":"DUNMAN HIGH SCHOOL","ADDRESS":"10 TANJONG RHU ROAD","SCH_TYPE":"secondary","SCH_CODE":"SC348","SCH_RANK":"IP","POSTCODE":"436895"},"geometry":{"type":"Point","coordinates":[103.88324017380845,1.2998093653576903]}},{"type":"Feature","properties":{"SCH_NAME":"DUNMAN SECONDARY SCHOOL","ADDRESS":"21 TAMPINES STREET 45","SCH_TYPE":"secondary","SCH_CODE":"SC234","SCH_RANK":null,"POSTCODE":"529093"},"geometry":{"type":"Point","coordinates":[103.95621332016114,1.3606525858517975]}},{"type":"Feature","properties":{"SCH_NAME":"EAST COAST PRIMARY SCHOOL","ADDRESS":"8 CHAI CHEE LANE","SCH_TYPE":"primary","SCH_CODE":"SC052","SCH_RANK":null,"POSTCODE":"469031"},"geometry":{"type":"Point","coordinates":[103.9198874198673,1.3291013654168295]}},{"type":"Feature","properties":{"SCH_NAME":"EAST SPRING PRIMARY SCHOOL","ADDRESS":"31 TAMPINES ST 33","SCH_TYPE":"primary","SCH_CODE":"SC053","SCH_RANK":null,"POSTCODE":"529258"},"geometry":{"type":"Point","coordinates":[103.96167181072616,1.352684006052276]}},{"type":"Feature","properties":{"SCH_NAME":"EAST SPRING SECONDARY SCHOOL","ADDRESS":"30 TAMPINES STREET 34","SCH_TYPE":"secondary","SCH_CODE":"SC235","SCH_RANK":null,"POSTCODE":"529231"},"geometry":{"type":"Point","coordinates":[103.96064070000084,1.3562250907360733]}},{"type":"Feature","properties":{"SCH_NAME":"EAST VIEW PRIMARY SCHOOL","ADDRESS":"4 TAMPINES STREET 91","SCH_TYPE":"primary","SCH_CODE":"SC054","SCH_RANK":null,"POSTCODE":"528907"},"geometry":{"type":"Point","coordinates":[103.93964878485095,1.3468939962021433]}},{"type":"Feature","properties":{"SCH_NAME":"EAST VIEW SECONDARY SCHOOL","ADDRESS":"3 TAMPINES STREET 42","SCH_TYPE":"secondary","SCH_CODE":"SC236","SCH_RANK":null,"POSTCODE":"529177"},"geometry":{"type":"Point","coordinates":[103.94958724779764,1.358261759272459]}},{"type":"Feature","properties":{"SCH_NAME":"EDGEFIELD PRIMARY SCHOOL","ADDRESS":"41 EDGEFIELD PLAINS","SCH_TYPE":"primary","SCH_CODE":"SC055","SCH_RANK":null,"POSTCODE":"828869"},"geometry":{"type":"Point","coordinates":[103.90743052192735,1.4002978345093664]}},{"type":"Feature","properties":{"SCH_NAME":"EDGEFIELD SECONDARY SCHOOL","ADDRESS":"36 Punggol Field","SCH_TYPE":"secondary","SCH_CODE":"SC237","SCH_RANK":null,"POSTCODE":"828814"},"geometry":{"type":"Point","coordinates":[103.90268738538647,1.4005930996398255]}},{"type":"Feature","properties":{"SCH_NAME":"ELIAS PARK PRIMARY SCHOOL","ADDRESS":"11 PASIR RIS STREET 52","SCH_TYPE":"primary","SCH_CODE":"SC056","SCH_RANK":null,"POSTCODE":"518866"},"geometry":{"type":"Point","coordinates":[103.94512811812382,1.374512694639755]}},{"type":"Feature","properties":{"SCH_NAME":"ENDEAVOUR PRIMARY SCHOOL","ADDRESS":"10 Admiralty Link","SCH_TYPE":"primary","SCH_CODE":"SC057","SCH_RANK":null,"POSTCODE":"757521"},"geometry":{"type":"Point","coordinates":[103.81743623141641,1.4540383750658494]}},{"type":"Feature","properties":{"SCH_NAME":"EUNOS PRIMARY SCHOOL","ADDRESS":"95 JALAN EUNOS Eunos Primary School","SCH_TYPE":"primary","SCH_CODE":"SC058","SCH_RANK":null,"POSTCODE":"419529"},"geometry":{"type":"Point","coordinates":[103.9046426376824,1.3245848998505594]}},{"type":"Feature","properties":{"SCH_NAME":"EVERGREEN PRIMARY SCHOOL","ADDRESS":"31 WOODLANDS CIRCLE","SCH_TYPE":"primary","SCH_CODE":"SC059","SCH_RANK":null,"POSTCODE":"738908"},"geometry":{"type":"Point","coordinates":[103.79486559339018,1.4434944435681136]}},{"type":"Feature","properties":{"SCH_NAME":"EVERGREEN SECONDARY SCHOOL","ADDRESS":"11 WOODLANDS STREET 83","SCH_TYPE":"secondary","SCH_CODE":"SC238","SCH_RANK":null,"POSTCODE":"738489"},"geometry":{"type":"Point","coordinates":[103.79377150112185,1.441220837642014]}},{"type":"Feature","properties":{"SCH_NAME":"FAIRFIELD METHODIST SCHOOL (PRIMARY)","ADDRESS":"100 DOVER ROAD","SCH_TYPE":"primary","SCH_CODE":"SC060","SCH_RANK":null,"POSTCODE":"139648"},"geometry":{"type":"Point","coordinates":[103.78569221297234,1.3007986909907747]}},{"type":"Feature","properties":{"SCH_NAME":"FAIRFIELD METHODIST SCHOOL (SECONDARY)","ADDRESS":"102 Dover Road Fairfield Methodist Secondary","SCH_TYPE":"secondary","SCH_CODE":"SC239","SCH_RANK":null,"POSTCODE":"139649"},"geometry":{"type":"Point","coordinates":[103.78436814936967,1.301920884110909]}},{"type":"Feature","properties":{"SCH_NAME":"FAJAR SECONDARY SCHOOL","ADDRESS":"31 GANGSA ROAD","SCH_TYPE":"secondary","SCH_CODE":"SC240","SCH_RANK":null,"POSTCODE":"678972"},"geometry":{"type":"Point","coordinates":[103.76472596648155,1.3744840679226242]}},{"type":"Feature","properties":{"SCH_NAME":"FARRER PARK PRIMARY SCHOOL","ADDRESS":"2 FARRER PARK ROAD","SCH_TYPE":"primary","SCH_CODE":"SC061","SCH_RANK":null,"POSTCODE":"217567"},"geometry":{"type":"Point","coordinates":[103.85090268492954,1.3125041614138373]}},{"type":"Feature","properties":{"SCH_NAME":"FENGSHAN PRIMARY SCHOOL","ADDRESS":"307 BEDOK NORTH ROAD","SCH_TYPE":"primary","SCH_CODE":"SC062","SCH_RANK":null,"POSTCODE":"469680"},"geometry":{"type":"Point","coordinates":[103.93188537608658,1.3303249550481064]}},{"type":"Feature","properties":{"SCH_NAME":"FERNVALE PRIMARY SCHOOL","ADDRESS":"1 Fernvale Lane","SCH_TYPE":"primary","SCH_CODE":"SC063","SCH_RANK":null,"POSTCODE":"797701"},"geometry":{"type":"Point","coordinates":[103.8741009772885,1.389979407806192]}},{"type":"Feature","properties":{"SCH_NAME":"FIRST TOA PAYOH PRIMARY SCHOOL","ADDRESS":"7 LORONG 8 TOA PAYOH","SCH_TYPE":"primary","SCH_CODE":"SC064","SCH_RANK":null,"POSTCODE":"319252"},"geometry":{"type":"Point","coordinates":[103.85566753480254,1.3405261650419011]}},{"type":"Feature","properties":{"SCH_NAME":"FIRST TOA PAYOH SECONDARY SCHOOL","ADDRESS":"580 TOA PAYOH EAST","SCH_TYPE":"secondary","SCH_CODE":"SC241","SCH_RANK":null,"POSTCODE":"319133"},"geometry":{"type":"Point","coordinates":[103.85892713353587,1.3328524604533414]}},{"type":"Feature","properties":{"SCH_NAME":"FRONTIER PRIMARY SCHOOL","ADDRESS":"20 Jurong West Street 61","SCH_TYPE":"primary","SCH_CODE":"SC065","SCH_RANK":null,"POSTCODE":"648200"},"geometry":{"type":"Point","coordinates":[103.69968281187428,1.3366431219299628]}},{"type":"Feature","properties":{"SCH_NAME":"FUCHUN PRIMARY SCHOOL","ADDRESS":"23 WOODLANDS AVENUE 1","SCH_TYPE":"primary","SCH_CODE":"SC066","SCH_RANK":null,"POSTCODE":"739063"},"geometry":{"type":"Point","coordinates":[103.77817519253445,1.4306397675701852]}},{"type":"Feature","properties":{"SCH_NAME":"FUCHUN SECONDARY SCHOOL","ADDRESS":"21 WOODLANDS AVENUE 1","SCH_TYPE":"secondary","SCH_CODE":"SC242","SCH_RANK":null,"POSTCODE":"739062"},"geometry":{"type":"Point","coordinates":[103.77714799975617,1.4308339879883343]}},{"type":"Feature","properties":{"SCH_NAME":"FUHUA PRIMARY SCHOOL","ADDRESS":"65 JURONG EAST STREET 13","SCH_TYPE":"primary","SCH_CODE":"SC067","SCH_RANK":null,"POSTCODE":"609647"},"geometry":{"type":"Point","coordinates":[103.73666945480892,1.3364037630649974]}},{"type":"Feature","properties":{"SCH_NAME":"FUHUA SECONDARY SCHOOL","ADDRESS":"5 JURONG WEST STREET 41","SCH_TYPE":"secondary","SCH_CODE":"SC243","SCH_RANK":null,"POSTCODE":"649410"},"geometry":{"type":"Point","coordinates":[103.72675967392864,1.346879896688636]}},{"type":"Feature","properties":{"SCH_NAME":"GAN ENG SENG PRIMARY SCHOOL","ADDRESS":"100 REDHILL CLOSE","SCH_TYPE":"primary","SCH_CODE":"SC068","SCH_RANK":null,"POSTCODE":"158901"},"geometry":{"type":"Point","coordinates":[103.81522820757228,1.2859553931718515]}},{"type":"Feature","properties":{"SCH_NAME":"GAN ENG SENG SCHOOL","ADDRESS":"1 HENDERSON ROAD","SCH_TYPE":"secondary","SCH_CODE":"SC349","SCH_RANK":null,"POSTCODE":"159561"},"geometry":{"type":"Point","coordinates":[103.8237336726833,1.2890711448417653]}},{"type":"Feature","properties":{"SCH_NAME":"GEYLANG METHODIST SCHOOL (PRIMARY)","ADDRESS":"4 Geylang East Central","SCH_TYPE":"primary","SCH_CODE":"SC069","SCH_RANK":null,"POSTCODE":"389706"},"geometry":{"type":"Point","coordinates":[103.8839643129835,1.3176573536760885]}},{"type":"Feature","properties":{"SCH_NAME":"GEYLANG METHODIST SCHOOL (SECONDARY)","ADDRESS":"2 GEYLANG EAST CENTRAL","SCH_TYPE":"secondary","SCH_CODE":"SC244","SCH_RANK":null,"POSTCODE":"389705"},"geometry":{"type":"Point","coordinates":[103.88266673512612,1.3176475611904945]}},{"type":"Feature","properties":{"SCH_NAME":"GONGSHANG PRIMARY SCHOOL","ADDRESS":"1 TAMPINES STREET 42","SCH_TYPE":"primary","SCH_CODE":"SC070","SCH_RANK":"1","POSTCODE":"529176"},"geometry":{"type":"Point","coordinates":[103.94887192577457,1.3573489818038373]}},{"type":"Feature","properties":{"SCH_NAME":"GREENDALE PRIMARY SCHOOL","ADDRESS":"50 Edgedale Plains","SCH_TYPE":"primary","SCH_CODE":"SC071","SCH_RANK":null,"POSTCODE":"828848"},"geometry":{"type":"Point","coordinates":[103.91234104910721,1.3964876099591501]}},{"type":"Feature","properties":{"SCH_NAME":"GREENDALE SECONDARY SCHOOL","ADDRESS":"51 Edgedale Plains","SCH_TYPE":"secondary","SCH_CODE":"SC245","SCH_RANK":null,"POSTCODE":"828866"},"geometry":{"type":"Point","coordinates":[103.91157584051564,1.397280800253046]}},{"type":"Feature","properties":{"SCH_NAME":"GREENRIDGE PRIMARY SCHOOL","ADDRESS":"11 JELAPANG ROAD","SCH_TYPE":"primary","SCH_CODE":"SC072","SCH_RANK":null,"POSTCODE":"677744"},"geometry":{"type":"Point","coordinates":[103.76781462992993,1.3858737539622108]}},{"type":"Feature","properties":{"SCH_NAME":"GREENRIDGE SECONDARY SCHOOL","ADDRESS":"32 BUKIT PANJANG RING ROAD","SCH_TYPE":"secondary","SCH_CODE":"SC246","SCH_RANK":null,"POSTCODE":"679938"},"geometry":{"type":"Point","coordinates":[103.77382142641692,1.3820390460917396]}},{"type":"Feature","properties":{"SCH_NAME":"GREENVIEW SECONDARY SCHOOL","ADDRESS":"15 PASIR RIS STREET 21","SCH_TYPE":"secondary","SCH_CODE":"SC247","SCH_RANK":null,"POSTCODE":"518969"},"geometry":{"type":"Point","coordinates":[103.96276294287976,1.3693305568684777]}},{"type":"Feature","properties":{"SCH_NAME":"GREENWOOD PRIMARY SCHOOL","ADDRESS":"11 WOODLANDS DR 62","SCH_TYPE":"primary","SCH_CODE":"SC073","SCH_RANK":null,"POSTCODE":"737942"},"geometry":{"type":"Point","coordinates":[103.8047255872312,1.4398995835439246]}},{"type":"Feature","properties":{"SCH_NAME":"GRIFFITHS PRIMARY SCHOOL","ADDRESS":"3 TAMPINES STREET 22","SCH_TYPE":"primary","SCH_CODE":"SC074","SCH_RANK":null,"POSTCODE":"529366"},"geometry":{"type":"Point","coordinates":[103.95167302756309,1.348571433421844]}},{"type":"Feature","properties":{"SCH_NAME":"GUANGYANG PRIMARY SCHOOL","ADDRESS":"6 Bishan Street 12","SCH_TYPE":"primary","SCH_CODE":"SC075","SCH_RANK":null,"POSTCODE":"579806"},"geometry":{"type":"Point","coordinates":[103.84928476000722,1.3460426647672301]}},{"type":"Feature","properties":{"SCH_NAME":"GUANGYANG SECONDARY SCHOOL","ADDRESS":"8 Bishan Street 12","SCH_TYPE":"secondary","SCH_CODE":"SC248","SCH_RANK":null,"POSTCODE":"579807"},"geometry":{"type":"Point","coordinates":[103.85055022517643,1.344673253017733]}},{"type":"Feature","properties":{"SCH_NAME":"HAI SING CATHOLIC SCHOOL","ADDRESS":"9 PASIR RIS DRIVE 6","SCH_TYPE":"secondary","SCH_CODE":"SC350","SCH_RANK":null,"POSTCODE":"519421"},"geometry":{"type":"Point","coordinates":[103.95475128065173,1.3746382030961448]}},{"type":"Feature","properties":{"SCH_NAME":"HAIG GIRLS' SCHOOL","ADDRESS":"51 KOON SENG ROAD","SCH_TYPE":"secondary","SCH_CODE":"SC351","SCH_RANK":null,"POSTCODE":"427072"},"geometry":{"type":"Point","coordinates":[103.90219733493667,1.3122203355472708]}},{"type":"Feature","properties":{"SCH_NAME":"HENDERSON SECONDARY SCHOOL","ADDRESS":"100 HENDERSON RD","SCH_TYPE":"secondary","SCH_CODE":"SC249","SCH_RANK":null,"POSTCODE":"159544"},"geometry":{"type":"Point","coordinates":[103.81952622391036,1.2850982405658151]}},{"type":"Feature","properties":{"SCH_NAME":"HENRY PARK PRIMARY SCHOOL","ADDRESS":"1 HOLLAND GROVE ROAD","SCH_TYPE":"primary","SCH_CODE":"SC076","SCH_RANK":"1","POSTCODE":"278790"},"geometry":{"type":"Point","coordinates":[103.7842083019932,1.316725810063647]}},{"type":"Feature","properties":{"SCH_NAME":"HILLGROVE SECONDARY SCHOOL","ADDRESS":"10 BUKIT BATOK STREET 52","SCH_TYPE":"secondary","SCH_CODE":"SC250","SCH_RANK":null,"POSTCODE":"659250"},"geometry":{"type":"Point","coordinates":[103.75305239162704,1.352735494655553]}},{"type":"Feature","properties":{"SCH_NAME":"HOLY INNOCENTS' HIGH SCHOOL","ADDRESS":"1191 UPPER SERANGOON ROAD","SCH_TYPE":"secondary","SCH_CODE":"SC352","SCH_RANK":null,"POSTCODE":"534786"},"geometry":{"type":"Point","coordinates":[103.89602660646733,1.371215065193234]}},{"type":"Feature","properties":{"SCH_NAME":"HOLY INNOCENTS' PRIMARY SCHOOL","ADDRESS":"5 LORONG LOW KOON Holy Innocents' Primary School","SCH_TYPE":"primary","SCH_CODE":"SC077","SCH_RANK":null,"POSTCODE":"536451"},"geometry":{"type":"Point","coordinates":[103.89379522715993,1.3665523869491774]}},{"type":"Feature","properties":{"SCH_NAME":"HONG KAH PRIMARY SCHOOL","ADDRESS":"1 BUKIT BATOK WEST AVENUE 2","SCH_TYPE":"primary","SCH_CODE":"SC078","SCH_RANK":null,"POSTCODE":"659203"},"geometry":{"type":"Point","coordinates":[103.7436306189094,1.3628655025326282]}},{"type":"Feature","properties":{"SCH_NAME":"HONG KAH SECONDARY SCHOOL","ADDRESS":"931 JURONG WEST STREET 42","SCH_TYPE":"secondary","SCH_CODE":"SC251","SCH_RANK":null,"POSTCODE":"649370"},"geometry":{"type":"Point","coordinates":[103.72665792794653,1.352040845088105]}},{"type":"Feature","properties":{"SCH_NAME":"HONG WEN SCHOOL","ADDRESS":"30 TOWNER ROAD","SCH_TYPE":"secondary","SCH_CODE":"SC353","SCH_RANK":null,"POSTCODE":"327829"},"geometry":{"type":"Point","coordinates":[103.85762682816902,1.3217629868137564]}},{"type":"Feature","properties":{"SCH_NAME":"HORIZON PRIMARY SCHOOL","ADDRESS":"61 Edgedale Plains","SCH_TYPE":"primary","SCH_CODE":"SC079","SCH_RANK":null,"POSTCODE":"828819"},"geometry":{"type":"Point","coordinates":[103.91340622691756,1.39955995587992]}},{"type":"Feature","properties":{"SCH_NAME":"HOUGANG PRIMARY SCHOOL","ADDRESS":"1 HOUGANG ST 93","SCH_TYPE":"primary","SCH_CODE":"SC080","SCH_RANK":null,"POSTCODE":"534238"},"geometry":{"type":"Point","coordinates":[103.88080729533758,1.3773824932527476]}},{"type":"Feature","properties":{"SCH_NAME":"HOUGANG SECONDARY SCHOOL","ADDRESS":"2 HOUGANG STREET 93","SCH_TYPE":"secondary","SCH_CODE":"SC252","SCH_RANK":null,"POSTCODE":"534256"},"geometry":{"type":"Point","coordinates":[103.88253396319068,1.3776401935821079]}},{"type":"Feature","properties":{"SCH_NAME":"HUA YI SECONDARY SCHOOL","ADDRESS":"60 JURONG WEST ST 42","SCH_TYPE":"secondary","SCH_CODE":"SC253","SCH_RANK":null,"POSTCODE":"649371"},"geometry":{"type":"Point","coordinates":[103.72172659643218,1.3523562970461305]}},{"type":"Feature","properties":{"SCH_NAME":"HUAMIN PRIMARY SCHOOL","ADDRESS":"21 YISHUN AVENUE 11","SCH_TYPE":"primary","SCH_CODE":"SC081","SCH_RANK":null,"POSTCODE":"768857"},"geometry":{"type":"Point","coordinates":[103.84428268609332,1.4268002273341538]}},{"type":"Feature","properties":{"SCH_NAME":"HWA CHONG INSTITUTION","ADDRESS":"661 Bukit Timah Road","SCH_TYPE":"secondary","SCH_CODE":"SC354","SCH_RANK":"IP","POSTCODE":"269734"},"geometry":{"type":"Point","coordinates":[103.80570436133789,1.3249477925949813]}},{"type":"Feature","properties":{"SCH_NAME":"INNOVA JUNIOR COLLEGE","ADDRESS":"21 Champions Way","SCH_TYPE":"JC","SCH_CODE":"SC004","SCH_RANK":null,"POSTCODE":"737902"},"geometry":{"type":"Point","coordinates":[103.78858332625299,1.4302962623778444]}},{"type":"Feature","properties":{"SCH_NAME":"INNOVA PRIMARY SCHOOL","ADDRESS":"80 Woodlands Drive 17","SCH_TYPE":"primary","SCH_CODE":"SC082","SCH_RANK":null,"POSTCODE":"737888"},"geometry":{"type":"Point","coordinates":[103.79060753966245,1.4289670070258553]}},{"type":"Feature","properties":{"SCH_NAME":"JIEMIN PRIMARY SCHOOL","ADDRESS":"2 YISHUN STREET 71","SCH_TYPE":"primary","SCH_CODE":"SC083","SCH_RANK":null,"POSTCODE":"768515"},"geometry":{"type":"Point","coordinates":[103.83042793349432,1.427686203604732]}},{"type":"Feature","properties":{"SCH_NAME":"JING SHAN PRIMARY SCHOOL","ADDRESS":"5 ANG MO KIO ST 52","SCH_TYPE":"primary","SCH_CODE":"SC084","SCH_RANK":null,"POSTCODE":"569228"},"geometry":{"type":"Point","coordinates":[103.85181107081969,1.371892675545251]}},{"type":"Feature","properties":{"SCH_NAME":"JUNYUAN PRIMARY SCHOOL","ADDRESS":"2 Tampines Street 91","SCH_TYPE":"primary","SCH_CODE":"SC085","SCH_RANK":null,"POSTCODE":"528906"},"geometry":{"type":"Point","coordinates":[103.93922063246106,1.34787051979509]}},{"type":"Feature","properties":{"SCH_NAME":"JUNYUAN SECONDARY SCHOOL","ADDRESS":"11 TAMPINES STREET 84","SCH_TYPE":"secondary","SCH_CODE":"SC254","SCH_RANK":null,"POSTCODE":"528933"},"geometry":{"type":"Point","coordinates":[103.93388616616417,1.3536131523058983]}},{"type":"Feature","properties":{"SCH_NAME":"JURONG JUNIOR COLLEGE","ADDRESS":"800 CORPORATION ROAD","SCH_TYPE":"JC","SCH_CODE":"SC005","SCH_RANK":null,"POSTCODE":"649809"},"geometry":{"type":"Point","coordinates":[103.71345907117558,1.3504420225424352]}},{"type":"Feature","properties":{"SCH_NAME":"JURONG PRIMARY SCHOOL","ADDRESS":"320 JURONG EAST Street 32","SCH_TYPE":"primary","SCH_CODE":"SC086","SCH_RANK":null,"POSTCODE":"609476"},"geometry":{"type":"Point","coordinates":[103.7331565603548,1.348600203159613]}},{"type":"Feature","properties":{"SCH_NAME":"JURONG SECONDARY SCHOOL","ADDRESS":"31 YUAN CHING ROAD","SCH_TYPE":"secondary","SCH_CODE":"SC255","SCH_RANK":null,"POSTCODE":"618652"},"geometry":{"type":"Point","coordinates":[103.72395296186377,1.3300203225018272]}},{"type":"Feature","properties":{"SCH_NAME":"JURONG WEST PRIMARY SCHOOL","ADDRESS":"30 JURONG WEST ST 61","SCH_TYPE":"primary","SCH_CODE":"SC087","SCH_RANK":null,"POSTCODE":"648368"},"geometry":{"type":"Point","coordinates":[103.69874360176631,1.3397127327360543]}},{"type":"Feature","properties":{"SCH_NAME":"JURONG WEST SECONDARY SCHOOL","ADDRESS":"61 JURONG WEST STREET 65","SCH_TYPE":"secondary","SCH_CODE":"SC256","SCH_RANK":null,"POSTCODE":"648348"},"geometry":{"type":"Point","coordinates":[103.7020981322867,1.3352563449124306]}},{"type":"Feature","properties":{"SCH_NAME":"JURONGVILLE SECONDARY SCHOOL","ADDRESS":"202 JURONG EAST AVENUE 1","SCH_TYPE":"secondary","SCH_CODE":"SC257","SCH_RANK":null,"POSTCODE":"609790"},"geometry":{"type":"Point","coordinates":[103.72911268617194,1.3515495586439787]}},{"type":"Feature","properties":{"SCH_NAME":"JUYING PRIMARY SCHOOL","ADDRESS":"31 JURONG WEST STREET 91","SCH_TYPE":"primary","SCH_CODE":"SC088","SCH_RANK":null,"POSTCODE":"649037"},"geometry":{"type":"Point","coordinates":[103.68776962506847,1.3390226468883943]}},{"type":"Feature","properties":{"SCH_NAME":"JUYING SECONDARY SCHOOL","ADDRESS":"33 JURONG WEST STREET 91","SCH_TYPE":"secondary","SCH_CODE":"SC258","SCH_RANK":null,"POSTCODE":"649038"},"geometry":{"type":"Point","coordinates":[103.68720650589006,1.338178834793507]}},{"type":"Feature","properties":{"SCH_NAME":"KEMING PRIMARY SCHOOL","ADDRESS":"90 BUKIT BATOK EAST AVENUE 6","SCH_TYPE":"primary","SCH_CODE":"SC089","SCH_RANK":null,"POSTCODE":"659762"},"geometry":{"type":"Point","coordinates":[103.75626447041198,1.3452450522087382]}},{"type":"Feature","properties":{"SCH_NAME":"KENT RIDGE SECONDARY SCHOOL","ADDRESS":"147 WEST COAST ROAD","SCH_TYPE":"secondary","SCH_CODE":"SC259","SCH_RANK":null,"POSTCODE":"127368"},"geometry":{"type":"Point","coordinates":[103.76492751356624,1.3013528869022977]}},{"type":"Feature","properties":{"SCH_NAME":"KHENG CHENG SCHOOL","ADDRESS":"15 LORONG 3 TOA PAYOH","SCH_TYPE":"primary","SCH_CODE":"SC183","SCH_RANK":null,"POSTCODE":"319580"},"geometry":{"type":"Point","coordinates":[103.84714825166822,1.3373312550765715]}},{"type":"Feature","properties":{"SCH_NAME":"KONG HWA SCHOOL","ADDRESS":"350 GUILLEMARD ROAD","SCH_TYPE":"primary","SCH_CODE":"SC184","SCH_RANK":"1","POSTCODE":"399772"},"geometry":{"type":"Point","coordinates":[103.88820941259169,1.3111142192908696]}},{"type":"Feature","properties":{"SCH_NAME":"KRANJI PRIMARY SCHOOL","ADDRESS":"11 CHOA CHU KANG STREET 54","SCH_TYPE":"primary","SCH_CODE":"SC090","SCH_RANK":null,"POSTCODE":"689189"},"geometry":{"type":"Point","coordinates":[103.74736190484248,1.3935558612072796]}},{"type":"Feature","properties":{"SCH_NAME":"KRANJI SECONDARY SCHOOL","ADDRESS":"61 CHOA CHU KANG STREET 51","SCH_TYPE":"secondary","SCH_CODE":"SC260","SCH_RANK":null,"POSTCODE":"689333"},"geometry":{"type":"Point","coordinates":[103.74120996788318,1.390088249014424]}},{"type":"Feature","properties":{"SCH_NAME":"KUO CHUAN PRESBYTERIAN PRIMARY SCHOOL","ADDRESS":"2 ANG MO KIO STREET 23","SCH_TYPE":"primary","SCH_CODE":"SC091","SCH_RANK":"1","POSTCODE":"569341"},"geometry":{"type":"Point","coordinates":[103.84023430144843,1.3688402175913905]}},{"type":"Feature","properties":{"SCH_NAME":"KUO CHUAN PRESBYTERIAN SECONDARY SCHOOL","ADDRESS":"10 Bishan St. 13","SCH_TYPE":"secondary","SCH_CODE":"SC261","SCH_RANK":null,"POSTCODE":"579795"},"geometry":{"type":"Point","coordinates":[103.85489166876407,1.350109648405309]}},{"type":"Feature","properties":{"SCH_NAME":"LAKESIDE PRIMARY SCHOOL","ADDRESS":"161 Corporation Walk","SCH_TYPE":"primary","SCH_CODE":"SC092","SCH_RANK":null,"POSTCODE":"618310"},"geometry":{"type":"Point","coordinates":[103.71808954670516,1.3382039767645328]}},{"type":"Feature","properties":{"SCH_NAME":"LIANHUA PRIMARY SCHOOL","ADDRESS":"2 BUKIT BATOK STREET 52","SCH_TYPE":"primary","SCH_CODE":"SC093","SCH_RANK":null,"POSTCODE":"659243"},"geometry":{"type":"Point","coordinates":[103.75421037518275,1.3541550689733115]}},{"type":"Feature","properties":{"SCH_NAME":"LOYANG PRIMARY SCHOOL","ADDRESS":"3 PASIR RIS DRIVE 6","SCH_TYPE":"primary","SCH_CODE":"SC094","SCH_RANK":null,"POSTCODE":"519419"},"geometry":{"type":"Point","coordinates":[103.95581596361292,1.3711693270421064]}},{"type":"Feature","properties":{"SCH_NAME":"LOYANG SECONDARY SCHOOL","ADDRESS":"12 PASIR RIS STREET 11","SCH_TYPE":"secondary","SCH_CODE":"SC262","SCH_RANK":null,"POSTCODE":"519073"},"geometry":{"type":"Point","coordinates":[103.95806643767779,1.3666583177831633]}},{"type":"Feature","properties":{"SCH_NAME":"MACPHERSON PRIMARY SCHOOL","ADDRESS":"2 MATTAR ROAD","SCH_TYPE":"primary","SCH_CODE":"SC095","SCH_RANK":null,"POSTCODE":"387724"},"geometry":{"type":"Point","coordinates":[103.881624837335,1.3243915024896673]}},{"type":"Feature","properties":{"SCH_NAME":"MACPHERSON SECONDARY SCHOOL","ADDRESS":"121 CIRCUIT ROAD","SCH_TYPE":"secondary","SCH_CODE":"SC263","SCH_RANK":null,"POSTCODE":"379499"},"geometry":{"type":"Point","coordinates":[103.8887933537463,1.3272892454704892]}},{"type":"Feature","properties":{"SCH_NAME":"MAHA BODHI SCHOOL","ADDRESS":"10 UBI AVENUE 1","SCH_TYPE":"primary","SCH_CODE":"SC185","SCH_RANK":null,"POSTCODE":"408931"},"geometry":{"type":"Point","coordinates":[103.90145830246355,1.328478260598263]}},{"type":"Feature","properties":{"SCH_NAME":"MANJUSRI SECONDARY SCHOOL","ADDRESS":"20 Ubi Ave 1","SCH_TYPE":"secondary","SCH_CODE":"SC264","SCH_RANK":null,"POSTCODE":"408940"},"geometry":{"type":"Point","coordinates":[103.90171996441921,1.3274711201666445]}},{"type":"Feature","properties":{"SCH_NAME":"MARIS STELLA HIGH SCHOOL","ADDRESS":"25 MOUNT VERNON ROAD","SCH_TYPE":"primary","SCH_CODE":"SC355","SCH_RANK":"1","POSTCODE":"368051"},"geometry":{"type":"Point","coordinates":[103.87781407174045,1.3413886552212986]}},{"type":"Feature","properties":{"SCH_NAME":"MARIS STELLA HIGH SCHOOL","ADDRESS":"25 MOUNT VERNON ROAD","SCH_TYPE":"secondary","SCH_CODE":"SC355","SCH_RANK":null,"POSTCODE":"368051"},"geometry":{"type":"Point","coordinates":[103.87781407174045,1.3413886552212986]}},{"type":"Feature","properties":{"SCH_NAME":"MARSILING PRIMARY SCHOOL","ADDRESS":"31 WOODLANDS CENTRE ROAD","SCH_TYPE":"primary","SCH_CODE":"SC096","SCH_RANK":null,"POSTCODE":"738927"},"geometry":{"type":"Point","coordinates":[103.77369772088235,1.4344231166473096]}},{"type":"Feature","properties":{"SCH_NAME":"MARSILING SECONDARY SCHOOL","ADDRESS":"12 MARSILING ROAD","SCH_TYPE":"secondary","SCH_CODE":"SC265","SCH_RANK":null,"POSTCODE":"739110"},"geometry":{"type":"Point","coordinates":[103.77600809046278,1.4366442480631234]}},{"type":"Feature","properties":{"SCH_NAME":"MARYMOUNT CONVENT SCHOOL","ADDRESS":"20 MARYMOUNT ROAD","SCH_TYPE":"primary","SCH_CODE":"SC186","SCH_RANK":null,"POSTCODE":"297754"},"geometry":{"type":"Point","coordinates":[103.84004174854473,1.34036389953869]}},{"type":"Feature","properties":{"SCH_NAME":"MAYFLOWER PRIMARY SCHOOL","ADDRESS":"200 ANG MO KIO AVE 5","SCH_TYPE":"primary","SCH_CODE":"SC097","SCH_RANK":null,"POSTCODE":"569878"},"geometry":{"type":"Point","coordinates":[103.84325280340265,1.376376834960787]}},{"type":"Feature","properties":{"SCH_NAME":"MAYFLOWER SECONDARY SCHOOL","ADDRESS":"2 ANG MO KIO Street 21 Mayflower Secondary School","SCH_TYPE":"secondary","SCH_CODE":"SC266","SCH_RANK":null,"POSTCODE":"569384"},"geometry":{"type":"Point","coordinates":[103.83543872192703,1.3683372454583869]}},{"type":"Feature","properties":{"SCH_NAME":"MEE TOH SCHOOL","ADDRESS":"21 EDGEDALE PLAINS","SCH_TYPE":"primary","SCH_CODE":"SC187","SCH_RANK":null,"POSTCODE":"828867"},"geometry":{"type":"Point","coordinates":[103.9085894945721,1.3946184537673165]}},{"type":"Feature","properties":{"SCH_NAME":"MERIDIAN JUNIOR COLLEGE","ADDRESS":"21 Pasir Ris Street 71","SCH_TYPE":"JC","SCH_CODE":"SC006","SCH_RANK":null,"POSTCODE":"518799"},"geometry":{"type":"Point","coordinates":[103.93699293915161,1.3763338075003702]}},{"type":"Feature","properties":{"SCH_NAME":"MERIDIAN PRIMARY SCHOOL","ADDRESS":"20 PASIR RIS ST 71","SCH_TYPE":"primary","SCH_CODE":"SC098","SCH_RANK":null,"POSTCODE":"518798"},"geometry":{"type":"Point","coordinates":[103.93488907820827,1.3755283166051704]}},{"type":"Feature","properties":{"SCH_NAME":"METHODIST GIRLS' SCHOOL (PRIMARY)","ADDRESS":"11 Blackmore Drive","SCH_TYPE":"primary","SCH_CODE":"SC099","SCH_RANK":"1","POSTCODE":"599986"},"geometry":{"type":"Point","coordinates":[103.78349035840272,1.3329497544520565]}},{"type":"Feature","properties":{"SCH_NAME":"METHODIST GIRLS' SCHOOL (SECONDARY)","ADDRESS":"11 BLACKMORE DRIVE","SCH_TYPE":"secondary","SCH_CODE":"SC267","SCH_RANK":"IP","POSTCODE":"599986"},"geometry":{"type":"Point","coordinates":[103.78349035840272,1.3329497544520565]}},{"type":"Feature","properties":{"SCH_NAME":"MILLENNIA INSTITUTE","ADDRESS":"60 Bukit Batok West Avenue 8","SCH_TYPE":"JC","SCH_CODE":"SC016","SCH_RANK":null,"POSTCODE":"658965"},"geometry":{"type":"Point","coordinates":[103.74159355385206,1.350319295643315]}},{"type":"Feature","properties":{"SCH_NAME":"MONTFORT JUNIOR SCHOOL","ADDRESS":"52 HOUGANG AVENUE 8","SCH_TYPE":"primary","SCH_CODE":"SC188","SCH_RANK":null,"POSTCODE":"538786"},"geometry":{"type":"Point","coordinates":[103.88969080814714,1.3739376382900717]}},{"type":"Feature","properties":{"SCH_NAME":"MONTFORT SECONDARY SCHOOL","ADDRESS":"50 HOUGANG AVENUE 8","SCH_TYPE":"secondary","SCH_CODE":"SC268","SCH_RANK":null,"POSTCODE":"538785"},"geometry":{"type":"Point","coordinates":[103.88885984909524,1.3739506779950235]}},{"type":"Feature","properties":{"SCH_NAME":"NAN CHIAU HIGH SCHOOL","ADDRESS":"20 ANCHORVALE LINK","SCH_TYPE":"secondary","SCH_CODE":"SC356","SCH_RANK":null,"POSTCODE":"545079"},"geometry":{"type":"Point","coordinates":[103.89000442373516,1.3887958253907644]}},{"type":"Feature","properties":{"SCH_NAME":"NAN CHIAU PRIMARY SCHOOL","ADDRESS":"50 ANCHORVALE LINK","SCH_TYPE":"primary","SCH_CODE":"SC100","SCH_RANK":null,"POSTCODE":"545080"},"geometry":{"type":"Point","coordinates":[103.89118092841869,1.392211498693003]}},{"type":"Feature","properties":{"SCH_NAME":"NAN HUA HIGH SCHOOL","ADDRESS":"41 CLEMENTI AVENUE 1","SCH_TYPE":"secondary","SCH_CODE":"SC357","SCH_RANK":null,"POSTCODE":"129956"},"geometry":{"type":"Point","coordinates":[103.76901543555871,1.3081412106605612]}},{"type":"Feature","properties":{"SCH_NAME":"NAN HUA PRIMARY SCHOOL","ADDRESS":"30 JALAN LEMPENG","SCH_TYPE":"primary","SCH_CODE":"SC101","SCH_RANK":"1","POSTCODE":"128806"},"geometry":{"type":"Point","coordinates":[103.76140395735669,1.3198366375009543]}},{"type":"Feature","properties":{"SCH_NAME":"NANYANG GIRLS' HIGH SCHOOL","ADDRESS":"2 LINDEN DRIVE","SCH_TYPE":"secondary","SCH_CODE":"SC358","SCH_RANK":"IP","POSTCODE":"288683"},"geometry":{"type":"Point","coordinates":[103.80242098024722,1.3305832663791843]}},{"type":"Feature","properties":{"SCH_NAME":"NANYANG JUNIOR COLLEGE","ADDRESS":"128 SERANGOON AVENUE 3","SCH_TYPE":"JC","SCH_CODE":"SC007","SCH_RANK":null,"POSTCODE":"556111"},"geometry":{"type":"Point","coordinates":[103.86649872163098,1.350283149475751]}},{"type":"Feature","properties":{"SCH_NAME":"NANYANG PRIMARY SCHOOL","ADDRESS":"52 KING'S ROAD","SCH_TYPE":"primary","SCH_CODE":"SC102","SCH_RANK":"1","POSTCODE":"268097"},"geometry":{"type":"Point","coordinates":[103.80812258340269,1.3209541003862375]}},{"type":"Feature","properties":{"SCH_NAME":"NATIONAL JUNIOR COLLEGE","ADDRESS":"37 HILLCREST ROAD","SCH_TYPE":"JC","SCH_CODE":"SC008","SCH_RANK":null,"POSTCODE":"288913"},"geometry":{"type":"Point","coordinates":[103.80445871346109,1.3304299281961345]}},{"type":"Feature","properties":{"SCH_NAME":"NAVAL BASE PRIMARY SCHOOL","ADDRESS":"7 YISHUN AVE 4","SCH_TYPE":"primary","SCH_CODE":"SC103","SCH_RANK":null,"POSTCODE":"769028"},"geometry":{"type":"Point","coordinates":[103.83879407757676,1.4163066316298]}},{"type":"Feature","properties":{"SCH_NAME":"NAVAL BASE SECONDARY SCHOOL","ADDRESS":"901 YISHUN RING ROAD","SCH_TYPE":"secondary","SCH_CODE":"SC269","SCH_RANK":null,"POSTCODE":"768689"},"geometry":{"type":"Point","coordinates":[103.83105039030903,1.4193788163618768]}},{"type":"Feature","properties":{"SCH_NAME":"NEW TOWN PRIMARY SCHOOL","ADDRESS":"300 Tanglin Halt Road","SCH_TYPE":"primary","SCH_CODE":"SC104","SCH_RANK":null,"POSTCODE":"148812"},"geometry":{"type":"Point","coordinates":[103.80010231846498,1.299641810491355]}},{"type":"Feature","properties":{"SCH_NAME":"NEW TOWN SECONDARY SCHOOL","ADDRESS":"1020 Dover Road","SCH_TYPE":"secondary","SCH_CODE":"SC270","SCH_RANK":null,"POSTCODE":"139657"},"geometry":{"type":"Point","coordinates":[103.7731886342654,1.3097758998098046]}},{"type":"Feature","properties":{"SCH_NAME":"NGEE ANN PRIMARY SCHOOL","ADDRESS":"344 MARINE TERRACE","SCH_TYPE":"primary","SCH_CODE":"SC105","SCH_RANK":null,"POSTCODE":"449149"},"geometry":{"type":"Point","coordinates":[103.9174630176143,1.3055250589304526]}},{"type":"Feature","properties":{"SCH_NAME":"NGEE ANN SECONDARY SCHOOL","ADDRESS":"1 TAMPINES STREET 32","SCH_TYPE":"secondary","SCH_CODE":"SC271","SCH_RANK":null,"POSTCODE":"529283"},"geometry":{"type":"Point","coordinates":[103.95703029567693,1.3543468797838638]}},{"type":"Feature","properties":{"SCH_NAME":"NORTH SPRING PRIMARY SCHOOL","ADDRESS":"1 RIVERVALE STREET","SCH_TYPE":"primary","SCH_CODE":"SC106","SCH_RANK":null,"POSTCODE":"545088"},"geometry":{"type":"Point","coordinates":[103.9032026832681,1.3870614650600284]}},{"type":"Feature","properties":{"SCH_NAME":"NORTH VIEW PRIMARY SCHOOL","ADDRESS":"210 YISHUN AVENUE 6","SCH_TYPE":"primary","SCH_CODE":"SC107","SCH_RANK":null,"POSTCODE":"768960"},"geometry":{"type":"Point","coordinates":[103.8481907877668,1.4275232721822622]}},{"type":"Feature","properties":{"SCH_NAME":"NORTH VIEW SECONDARY SCHOOL","ADDRESS":"530 YISHUN RING ROAD","SCH_TYPE":"secondary","SCH_CODE":"SC272","SCH_RANK":null,"POSTCODE":"768680"},"geometry":{"type":"Point","coordinates":[103.84486344329956,1.427318810210569]}},{"type":"Feature","properties":{"SCH_NAME":"NORTH VISTA PRIMARY SCHOOL","ADDRESS":"20 Compassvale Link","SCH_TYPE":"primary","SCH_CODE":"SC108","SCH_RANK":null,"POSTCODE":"544974"},"geometry":{"type":"Point","coordinates":[103.89596187808264,1.382822430152182]}},{"type":"Feature","properties":{"SCH_NAME":"NORTH VISTA SECONDARY SCHOOL","ADDRESS":"11 RIVERVALE LINK","SCH_TYPE":"secondary","SCH_CODE":"SC273","SCH_RANK":null,"POSTCODE":"545081"},"geometry":{"type":"Point","coordinates":[103.89892688606392,1.3812520144287401]}},{"type":"Feature","properties":{"SCH_NAME":"NORTHBROOKS SECONDARY SCHOOL","ADDRESS":"585 YISHUN RING ROAD","SCH_TYPE":"secondary","SCH_CODE":"SC274","SCH_RANK":null,"POSTCODE":"768692"},"geometry":{"type":"Point","coordinates":[103.84514803207875,1.4208155355549086]}},{"type":"Feature","properties":{"SCH_NAME":"NORTHLAND PRIMARY SCHOOL","ADDRESS":"15 YISHUN AVENUE 4","SCH_TYPE":"primary","SCH_CODE":"SC109","SCH_RANK":null,"POSTCODE":"769026"},"geometry":{"type":"Point","coordinates":[103.84079291714345,1.4213040441782652]}},{"type":"Feature","properties":{"SCH_NAME":"NORTHLAND SECONDARY SCHOOL","ADDRESS":"3 YISHUN STREET 22","SCH_TYPE":"secondary","SCH_CODE":"SC275","SCH_RANK":null,"POSTCODE":"768578"},"geometry":{"type":"Point","coordinates":[103.84010468825348,1.4358018331772122]}},{"type":"Feature","properties":{"SCH_NAME":"NORTHLIGHT SCHOOL","ADDRESS":"2 Dunman Road Campus 1","SCH_TYPE":"secondary","SCH_CODE":"SC359","SCH_RANK":null,"POSTCODE":"439188"},"geometry":{"type":"Point","coordinates":[103.89043878713265,1.3082631941844394]}},{"type":"Feature","properties":{"SCH_NAME":"NORTHOAKS PRIMARY SCHOOL","ADDRESS":"61 Sembawang Drive","SCH_TYPE":"primary","SCH_CODE":"SC110","SCH_RANK":null,"POSTCODE":"757622"},"geometry":{"type":"Point","coordinates":[103.81419698172755,1.4566078203116652]}},{"type":"Feature","properties":{"SCH_NAME":"NUS HIGH SCHOOL OF MATHEMATICS AND SCIENCE","ADDRESS":"20 Clementi Avenue 1","SCH_TYPE":"secondary","SCH_CODE":"SC360","SCH_RANK":null,"POSTCODE":"129957"},"geometry":{"type":"Point","coordinates":[103.76941249265319,1.3066209882952498]}},{"type":"Feature","properties":{"SCH_NAME":"OPERA ESTATE PRIMARY SCHOOL","ADDRESS":"48 FIDELIO STREET","SCH_TYPE":"primary","SCH_CODE":"SC111","SCH_RANK":null,"POSTCODE":"458436"},"geometry":{"type":"Point","coordinates":[103.92375266063883,1.3199687546083285]}},{"type":"Feature","properties":{"SCH_NAME":"ORCHID PARK SECONDARY SCHOOL","ADDRESS":"10 YISHUN STREET 81","SCH_TYPE":"secondary","SCH_CODE":"SC276","SCH_RANK":null,"POSTCODE":"768454"},"geometry":{"type":"Point","coordinates":[103.83785924135509,1.4153203280236344]}},{"type":"Feature","properties":{"SCH_NAME":"OUTRAM SECONDARY SCHOOL","ADDRESS":"3 YORK HILL","SCH_TYPE":"secondary","SCH_CODE":"SC277","SCH_RANK":null,"POSTCODE":"168622"},"geometry":{"type":"Point","coordinates":[103.8371370681687,1.2865266671779698]}},{"type":"Feature","properties":{"SCH_NAME":"PALM VIEW PRIMARY SCHOOL","ADDRESS":"150 Compassvale Bow","SCH_TYPE":"primary","SCH_CODE":"SC112","SCH_RANK":null,"POSTCODE":"544822"},"geometry":{"type":"Point","coordinates":[103.89135467404857,1.3837366670576632]}},{"type":"Feature","properties":{"SCH_NAME":"PARK VIEW PRIMARY SCHOOL","ADDRESS":"60 PASIR RIS DRIVE 1","SCH_TYPE":"primary","SCH_CODE":"SC113","SCH_RANK":null,"POSTCODE":"519524"},"geometry":{"type":"Point","coordinates":[103.93968871753886,1.377770260924731]}},{"type":"Feature","properties":{"SCH_NAME":"PASIR RIS CREST SECONDARY SCHOOL","ADDRESS":"11 PASIR RIS STREET 41","SCH_TYPE":"secondary","SCH_CODE":"SC278","SCH_RANK":null,"POSTCODE":"518934"},"geometry":{"type":"Point","coordinates":[103.95972820302117,1.3728406014426886]}},{"type":"Feature","properties":{"SCH_NAME":"PASIR RIS PRIMARY SCHOOL","ADDRESS":"5 PASIR RIS STREET 21","SCH_TYPE":"primary","SCH_CODE":"SC114","SCH_RANK":"1","POSTCODE":"518968"},"geometry":{"type":"Point","coordinates":[103.96291887061896,1.372308618635971]}},{"type":"Feature","properties":{"SCH_NAME":"PASIR RIS SECONDARY SCHOOL","ADDRESS":"390 Tampines Street 21","SCH_TYPE":"secondary","SCH_CODE":"SC279","SCH_RANK":null,"POSTCODE":"529400"},"geometry":{"type":"Point","coordinates":[103.94861467173902,1.3546395655566437]}},{"type":"Feature","properties":{"SCH_NAME":"PAYA LEBAR METHODIST GIRLS' SCHOOL (PRIMARY)","ADDRESS":"298 LORONG AH SOO","SCH_TYPE":"primary","SCH_CODE":"SC115","SCH_RANK":null,"POSTCODE":"536741"},"geometry":{"type":"Point","coordinates":[103.88497836155513,1.3498418644171462]}},{"type":"Feature","properties":{"SCH_NAME":"PAYA LEBAR METHODIST GIRLS' SCHOOL (SECONDARY)","ADDRESS":"296 Lor Ah Soo","SCH_TYPE":"secondary","SCH_CODE":"SC280","SCH_RANK":null,"POSTCODE":"536742"},"geometry":{"type":"Point","coordinates":[103.88558660477096,1.3508051283853775]}},{"type":"Feature","properties":{"SCH_NAME":"PEI CHUN PUBLIC SCHOOL","ADDRESS":"16 TOA PAYOH LORONG 7","SCH_TYPE":"primary","SCH_CODE":"SC189","SCH_RANK":"1","POSTCODE":"319320"},"geometry":{"type":"Point","coordinates":[103.85547349688153,1.3372889327661461]}},{"type":"Feature","properties":{"SCH_NAME":"PEI HWA PRESBYTERIAN PRIMARY SCHOOL","ADDRESS":"7 PEI WAH AVENUE","SCH_TYPE":"primary","SCH_CODE":"SC116","SCH_RANK":null,"POSTCODE":"597610"},"geometry":{"type":"Point","coordinates":[103.77610824804579,1.3380550782442018]}},{"type":"Feature","properties":{"SCH_NAME":"PEI HWA SECONDARY SCHOOL","ADDRESS":"21 Fernvale Link","SCH_TYPE":"secondary","SCH_CODE":"SC281","SCH_RANK":null,"POSTCODE":"797702"},"geometry":{"type":"Point","coordinates":[103.8785667255755,1.3904821513782577]}},{"type":"Feature","properties":{"SCH_NAME":"PEI TONG PRIMARY SCHOOL","ADDRESS":"15 CLEMENTI AVENUE 5","SCH_TYPE":"primary","SCH_CODE":"SC117","SCH_RANK":null,"POSTCODE":"129857"},"geometry":{"type":"Point","coordinates":[103.76743423812967,1.3167370760952555]}},{"type":"Feature","properties":{"SCH_NAME":"PEICAI SECONDARY SCHOOL","ADDRESS":"10 SERANGOON AVENUE 4","SCH_TYPE":"secondary","SCH_CODE":"SC282","SCH_RANK":null,"POSTCODE":"556094"},"geometry":{"type":"Point","coordinates":[103.87001074826506,1.3595158325467809]}},{"type":"Feature","properties":{"SCH_NAME":"PEIRCE SECONDARY SCHOOL","ADDRESS":"10 SIN MING WALK","SCH_TYPE":"secondary","SCH_CODE":"SC283","SCH_RANK":null,"POSTCODE":"575566"},"geometry":{"type":"Point","coordinates":[103.82991035518886,1.366131675741206]}},{"type":"Feature","properties":{"SCH_NAME":"PEIYING PRIMARY SCHOOL","ADDRESS":"651 YISHUN RING ROAD","SCH_TYPE":"primary","SCH_CODE":"SC118","SCH_RANK":null,"POSTCODE":"768687"},"geometry":{"type":"Point","coordinates":[103.83029946797919,1.4174081920602748]}},{"type":"Feature","properties":{"SCH_NAME":"PING YI SECONDARY SCHOOL","ADDRESS":"61 Chai Chee Street","SCH_TYPE":"secondary","SCH_CODE":"SC284","SCH_RANK":null,"POSTCODE":"468980"},"geometry":{"type":"Point","coordinates":[103.92070067136258,1.3270167270897806]}},{"type":"Feature","properties":{"SCH_NAME":"PIONEER JUNIOR COLLEGE","ADDRESS":"21 Teck Whye Walk","SCH_TYPE":"JC","SCH_CODE":"SC009","SCH_RANK":null,"POSTCODE":"688258"},"geometry":{"type":"Point","coordinates":[103.7543910987642,1.3844259031436572]}},{"type":"Feature","properties":{"SCH_NAME":"PIONEER PRIMARY SCHOOL","ADDRESS":"23 JURONG WEST STREET 81","SCH_TYPE":"primary","SCH_CODE":"SC119","SCH_RANK":null,"POSTCODE":"649076"},"geometry":{"type":"Point","coordinates":[103.6953124692661,1.348467316755897]}},{"type":"Feature","properties":{"SCH_NAME":"PIONEER SECONDARY SCHOOL","ADDRESS":"21 JURONG WEST STREET 81","SCH_TYPE":"secondary","SCH_CODE":"SC285","SCH_RANK":null,"POSTCODE":"649075"},"geometry":{"type":"Point","coordinates":[103.6947692581642,1.3476130707717222]}},{"type":"Feature","properties":{"SCH_NAME":"POI CHING SCHOOL","ADDRESS":"21 TAMPINES STREET 71","SCH_TYPE":"primary","SCH_CODE":"SC190","SCH_RANK":null,"POSTCODE":"529067"},"geometry":{"type":"Point","coordinates":[103.93524647715347,1.3576512231705316]}},{"type":"Feature","properties":{"SCH_NAME":"PRESBYTERIAN HIGH SCHOOL","ADDRESS":"5209 ANG MO KIO AVENUE 6","SCH_TYPE":"secondary","SCH_CODE":"SC361","SCH_RANK":null,"POSTCODE":"569845"},"geometry":{"type":"Point","coordinates":[103.84293102133078,1.3827654458701482]}},{"type":"Feature","properties":{"SCH_NAME":"PRINCESS ELIZABETH PRIMARY SCHOOL","ADDRESS":"30 BUKIT BATOK WEST AVENUE 3","SCH_TYPE":"primary","SCH_CODE":"SC120","SCH_RANK":null,"POSTCODE":"659163"},"geometry":{"type":"Point","coordinates":[103.74101964485311,1.3492035128983237]}},{"type":"Feature","properties":{"SCH_NAME":"PUNGGOL GREEN PRIMARY SCHOOL","ADDRESS":"98 Punggol Walk","SCH_TYPE":"primary","SCH_CODE":"SC121","SCH_RANK":null,"POSTCODE":"828772"},"geometry":{"type":"Point","coordinates":[103.89880133073326,1.4018722063176596]}},{"type":"Feature","properties":{"SCH_NAME":"PUNGGOL PRIMARY SCHOOL","ADDRESS":"61 HOUGANG AVENUE 8","SCH_TYPE":"primary","SCH_CODE":"SC122","SCH_RANK":null,"POSTCODE":"538787"},"geometry":{"type":"Point","coordinates":[103.8947533427528,1.3782006235998145]}},{"type":"Feature","properties":{"SCH_NAME":"PUNGGOL SECONDARY SCHOOL","ADDRESS":"51 EDGEFIELD PLAINS","SCH_TYPE":"secondary","SCH_CODE":"SC286","SCH_RANK":null,"POSTCODE":"828870"},"geometry":{"type":"Point","coordinates":[103.90921370663486,1.402057384023094]}},{"type":"Feature","properties":{"SCH_NAME":"PUNGGOL VIEW PRIMARY SCHOOL","ADDRESS":"9 Punggol Place","SCH_TYPE":"primary","SCH_CODE":"SC123","SCH_RANK":null,"POSTCODE":"828845"},"geometry":{"type":"Point","coordinates":[103.90515637174803,1.4051458267053043]}},{"type":"Feature","properties":{"SCH_NAME":"QIAONAN PRIMARY SCHOOL","ADDRESS":"15 TAMPINES STREET 11","SCH_TYPE":"primary","SCH_CODE":"SC124","SCH_RANK":null,"POSTCODE":"529454"},"geometry":{"type":"Point","coordinates":[103.94887060358771,1.3464674110361112]}},{"type":"Feature","properties":{"SCH_NAME":"QIFA PRIMARY SCHOOL","ADDRESS":"50 WEST COAST AVENUE","SCH_TYPE":"primary","SCH_CODE":"SC125","SCH_RANK":null,"POSTCODE":"128104"},"geometry":{"type":"Point","coordinates":[103.75674320907352,1.3132514786550002]}},{"type":"Feature","properties":{"SCH_NAME":"QIHUA PRIMARY SCHOOL","ADDRESS":"5 WOODLANDS STREET 81","SCH_TYPE":"primary","SCH_CODE":"SC126","SCH_RANK":null,"POSTCODE":"738525"},"geometry":{"type":"Point","coordinates":[103.78833975675684,1.4420359664797975]}},{"type":"Feature","properties":{"SCH_NAME":"QUEENSTOWN PRIMARY SCHOOL","ADDRESS":"310 MARGARET DR","SCH_TYPE":"primary","SCH_CODE":"SC127","SCH_RANK":null,"POSTCODE":"149303"},"geometry":{"type":"Point","coordinates":[103.80790190235172,1.2959884462944724]}},{"type":"Feature","properties":{"SCH_NAME":"QUEENSTOWN SECONDARY SCHOOL","ADDRESS":"1 STRATHMORE ROAD","SCH_TYPE":"secondary","SCH_CODE":"SC287","SCH_RANK":null,"POSTCODE":"148800"},"geometry":{"type":"Point","coordinates":[103.81319097994266,1.2935212676707875]}},{"type":"Feature","properties":{"SCH_NAME":"QUEENSWAY SECONDARY SCHOOL","ADDRESS":"2A MARGARET DRIVE","SCH_TYPE":"secondary","SCH_CODE":"SC288","SCH_RANK":null,"POSTCODE":"149295"},"geometry":{"type":"Point","coordinates":[103.80172361437901,1.3004751672969332]}},{"type":"Feature","properties":{"SCH_NAME":"RADIN MAS PRIMARY SCHOOL","ADDRESS":"1 BUKIT PURMEI AVENUE","SCH_TYPE":"primary","SCH_CODE":"SC128","SCH_RANK":"1","POSTCODE":"099840"},"geometry":{"type":"Point","coordinates":[103.82418827046628,1.2749582362284237]}},{"type":"Feature","properties":{"SCH_NAME":"RAFFLES GIRLS' PRIMARY SCHOOL","ADDRESS":"21 HILLCREST ROAD","SCH_TYPE":"primary","SCH_CODE":"SC129","SCH_RANK":"1","POSTCODE":"289072"},"geometry":{"type":"Point","coordinates":[103.8062213351649,1.330073919015896]}},{"type":"Feature","properties":{"SCH_NAME":"RAFFLES GIRLS' SCHOOL (SECONDARY)","ADDRESS":"20 ANDERSON ROAD RAFFLES GIRLS' SCHOOL","SCH_TYPE":"secondary","SCH_CODE":"SC289","SCH_RANK":"IP","POSTCODE":"259978"},"geometry":{"type":"Point","coordinates":[103.82895958596568,1.3116950284874866]}},{"type":"Feature","properties":{"SCH_NAME":"RAFFLES INSTITUTION","ADDRESS":"1 RAFFLES INSTITUTION LANE","SCH_TYPE":"secondary","SCH_CODE":"SC362","SCH_RANK":"IP","POSTCODE":"575954"},"geometry":{"type":"Point","coordinates":[103.84598287463173,1.3457610868680532]}},{"type":"Feature","properties":{"SCH_NAME":"RED SWASTIKA SCHOOL","ADDRESS":"350 BEDOK NORTH AVENUE 3","SCH_TYPE":"primary","SCH_CODE":"SC191","SCH_RANK":"1","POSTCODE":"469719"},"geometry":{"type":"Point","coordinates":[103.93433231445307,1.3332429785533262]}},{"type":"Feature","properties":{"SCH_NAME":"REGENT SECONDARY SCHOOL","ADDRESS":"50 CHOA CHU KANG NORTH 5","SCH_TYPE":"secondary","SCH_CODE":"SC290","SCH_RANK":null,"POSTCODE":"689621"},"geometry":{"type":"Point","coordinates":[103.75099046044234,1.3933670430619727]}},{"type":"Feature","properties":{"SCH_NAME":"RIVER VALLEY HIGH SCHOOL","ADDRESS":"6 Boon Lay Avenue","SCH_TYPE":"secondary","SCH_CODE":"SC363","SCH_RANK":"IP","POSTCODE":"649961"},"geometry":{"type":"Point","coordinates":[103.70902215595905,1.3440780113768227]}},{"type":"Feature","properties":{"SCH_NAME":"RIVER VALLEY PRIMARY SCHOOL","ADDRESS":"2 RIVER VALLEY GREEN","SCH_TYPE":"primary","SCH_CODE":"SC130","SCH_RANK":null,"POSTCODE":"237993"},"geometry":{"type":"Point","coordinates":[103.83629374443399,1.2938177356758602]}},{"type":"Feature","properties":{"SCH_NAME":"RIVERSIDE PRIMARY SCHOOL","ADDRESS":"110 Woodlands Crescent","SCH_TYPE":"primary","SCH_CODE":"SC131","SCH_RANK":null,"POSTCODE":"737803"},"geometry":{"type":"Point","coordinates":[103.80183196336775,1.4470473427602555]}},{"type":"Feature","properties":{"SCH_NAME":"RIVERSIDE SECONDARY SCHOOL","ADDRESS":"3 Woodlands Street 81","SCH_TYPE":"secondary","SCH_CODE":"SC291","SCH_RANK":null,"POSTCODE":"738524"},"geometry":{"type":"Point","coordinates":[103.7883134718218,1.441077949337614]}},{"type":"Feature","properties":{"SCH_NAME":"RIVERVALE PRIMARY SCHOOL","ADDRESS":"80 RIVERVALE DRIVE","SCH_TYPE":"primary","SCH_CODE":"SC132","SCH_RANK":null,"POSTCODE":"545092"},"geometry":{"type":"Point","coordinates":[103.90471828439459,1.3935738047786768]}},{"type":"Feature","properties":{"SCH_NAME":"ROSYTH SCHOOL","ADDRESS":"21 Serangoon North Avenue 4","SCH_TYPE":"primary","SCH_CODE":"SC192","SCH_RANK":"1","POSTCODE":"555855"},"geometry":{"type":"Point","coordinates":[103.87500154955585,1.3728906753302603]}},{"type":"Feature","properties":{"SCH_NAME":"RULANG PRIMARY SCHOOL","ADDRESS":"6 JURONG WEST STREET 52","SCH_TYPE":"primary","SCH_CODE":"SC133","SCH_RANK":"1","POSTCODE":"649295"},"geometry":{"type":"Point","coordinates":[103.71912478290692,1.346806145191716]}},{"type":"Feature","properties":{"SCH_NAME":"SCHOOL OF SCIENCE AND TECHNOLOGY, SINGAPORE","ADDRESS":"1 Technology Drive","SCH_TYPE":"secondary","SCH_CODE":"SC364","SCH_RANK":null,"POSTCODE":"138572"},"geometry":{"type":"Point","coordinates":[103.77401152937793,1.3129281064040166]}},{"type":"Feature","properties":{"SCH_NAME":"SCHOOL OF THE ARTS, SINGAPORE","ADDRESS":"01 05 1 Zubir Said Drive Admin Office","SCH_TYPE":"secondary","SCH_CODE":"SC365","SCH_RANK":null,"POSTCODE":"227968"},"geometry":{"type":"Point","coordinates":[103.84868741940438,1.299364803853407]}},{"type":"Feature","properties":{"SCH_NAME":"SEMBAWANG PRIMARY SCHOOL","ADDRESS":"10 SEMBAWANG DRIVE","SCH_TYPE":"primary","SCH_CODE":"SC134","SCH_RANK":null,"POSTCODE":"757715"},"geometry":{"type":"Point","coordinates":[103.8210807926106,1.4451033131548439]}},{"type":"Feature","properties":{"SCH_NAME":"SEMBAWANG SECONDARY SCHOOL","ADDRESS":"30 SEMBAWANG CRESCENT","SCH_TYPE":"secondary","SCH_CODE":"SC292","SCH_RANK":null,"POSTCODE":"757704"},"geometry":{"type":"Point","coordinates":[103.81684325810816,1.4453150212247248]}},{"type":"Feature","properties":{"SCH_NAME":"SENG KANG PRIMARY SCHOOL","ADDRESS":"21 COMPASSVALE WALK","SCH_TYPE":"primary","SCH_CODE":"SC135","SCH_RANK":null,"POSTCODE":"545166"},"geometry":{"type":"Point","coordinates":[103.8995278730621,1.3892504567017216]}},{"type":"Feature","properties":{"SCH_NAME":"SENG KANG SECONDARY SCHOOL","ADDRESS":"10 COMPASSVALE LANE","SCH_TYPE":"secondary","SCH_CODE":"SC293","SCH_RANK":null,"POSTCODE":"545090"},"geometry":{"type":"Point","coordinates":[103.89835604059638,1.3865882900036717]}},{"type":"Feature","properties":{"SCH_NAME":"SENGKANG GREEN PRIMARY SCHOOL","ADDRESS":"15 Fernvale Road","SCH_TYPE":"primary","SCH_CODE":"SC136","SCH_RANK":null,"POSTCODE":"797636"},"geometry":{"type":"Point","coordinates":[103.87515882612423,1.3928392509508687]}},{"type":"Feature","properties":{"SCH_NAME":"SERANGOON GARDEN SECONDARY SCHOOL","ADDRESS":"21 SERANGOON NORTH AVENUE 1","SCH_TYPE":"secondary","SCH_CODE":"SC294","SCH_RANK":null,"POSTCODE":"555889"},"geometry":{"type":"Point","coordinates":[103.86947306172519,1.3701297594545938]}},{"type":"Feature","properties":{"SCH_NAME":"SERANGOON JUNIOR COLLEGE","ADDRESS":"1033 UPPER SERANGOON ROAD","SCH_TYPE":"JC","SCH_CODE":"SC010","SCH_RANK":null,"POSTCODE":"534768"},"geometry":{"type":"Point","coordinates":[103.88697346613074,1.3651733516028093]}},{"type":"Feature","properties":{"SCH_NAME":"SERANGOON SECONDARY SCHOOL","ADDRESS":"11 UPPER SERANGOON VIEW","SCH_TYPE":"secondary","SCH_CODE":"SC295","SCH_RANK":null,"POSTCODE":"534237"},"geometry":{"type":"Point","coordinates":[103.9021387403519,1.3746553884464563]}},{"type":"Feature","properties":{"SCH_NAME":"SHUQUN PRIMARY SCHOOL","ADDRESS":"8 JURONG WEST STREET 51","SCH_TYPE":"primary","SCH_CODE":"SC137","SCH_RANK":null,"POSTCODE":"649332"},"geometry":{"type":"Point","coordinates":[103.72152371376184,1.3476531141345998]}},{"type":"Feature","properties":{"SCH_NAME":"SHUQUN SECONDARY SCHOOL","ADDRESS":"450 JURONG EAST STREET 21","SCH_TYPE":"secondary","SCH_CODE":"SC296","SCH_RANK":null,"POSTCODE":"609604"},"geometry":{"type":"Point","coordinates":[103.73989444888679,1.3401560495352487]}},{"type":"Feature","properties":{"SCH_NAME":"SI LING PRIMARY SCHOOL","ADDRESS":"61 WOODLANDS AVENUE 1","SCH_TYPE":"primary","SCH_CODE":"SC138","SCH_RANK":null,"POSTCODE":"739067"},"geometry":{"type":"Point","coordinates":[103.78577876949272,1.4326998654325074]}},{"type":"Feature","properties":{"SCH_NAME":"SI LING SECONDARY SCHOOL","ADDRESS":"11 MARSILING LANE","SCH_TYPE":"secondary","SCH_CODE":"SC297","SCH_RANK":null,"POSTCODE":"739148"},"geometry":{"type":"Point","coordinates":[103.775000320186,1.4447360850627091]}},{"type":"Feature","properties":{"SCH_NAME":"SIGLAP SECONDARY SCHOOL","ADDRESS":"10 PASIR RIS DRIVE 10","SCH_TYPE":"secondary","SCH_CODE":"SC298","SCH_RANK":null,"POSTCODE":"519385"},"geometry":{"type":"Point","coordinates":[103.93960182653488,1.3797356564969105]}},{"type":"Feature","properties":{"SCH_NAME":"SINGAPORE CHINESE GIRLS' PRIMARY SCHOOL","ADDRESS":"190 DUNEARN ROAD","SCH_TYPE":"primary","SCH_CODE":"SC139","SCH_RANK":"1","POSTCODE":"309437"},"geometry":{"type":"Point","coordinates":[103.82819211956932,1.3210450825276119]}},{"type":"Feature","properties":{"SCH_NAME":"SINGAPORE CHINESE GIRLS' SCHOOL","ADDRESS":"190 DUNEARN ROAD","SCH_TYPE":"secondary","SCH_CODE":"SC366","SCH_RANK":"IP","POSTCODE":"309437"},"geometry":{"type":"Point","coordinates":[103.82819211956932,1.3210450825276119]}},{"type":"Feature","properties":{"SCH_NAME":"SINGAPORE SPORTS SCHOOL","ADDRESS":"1 Champions Way","SCH_TYPE":"secondary","SCH_CODE":"SC367","SCH_RANK":null,"POSTCODE":"737913"},"geometry":{"type":"Point","coordinates":[103.78943617291436,1.4264119298099207]}},{"type":"Feature","properties":{"SCH_NAME":"SOUTH VIEW PRIMARY SCHOOL","ADDRESS":"6 CHOA CHU KANG CENTRAL","SCH_TYPE":"primary","SCH_CODE":"SC140","SCH_RANK":null,"POSTCODE":"689762"},"geometry":{"type":"Point","coordinates":[103.7472897841266,1.3817667246434733]}},{"type":"Feature","properties":{"SCH_NAME":"SPECTRA SECONDARY SCHOOL","ADDRESS":"1 Woodlands Drive 64","SCH_TYPE":"secondary","SCH_CODE":"SC299","SCH_RANK":null,"POSTCODE":"737758"},"geometry":{"type":"Point","coordinates":[103.8044327034164,1.4364385023976811]}},{"type":"Feature","properties":{"SCH_NAME":"SPRINGDALE PRIMARY SCHOOL","ADDRESS":"71 Anchorvale Link","SCH_TYPE":"primary","SCH_CODE":"SC141","SCH_RANK":null,"POSTCODE":"544799"},"geometry":{"type":"Point","coordinates":[103.88990720639302,1.3946663444689988]}},{"type":"Feature","properties":{"SCH_NAME":"SPRINGFIELD SECONDARY SCHOOL","ADDRESS":"30 TAMPINES AVENUE 8","SCH_TYPE":"secondary","SCH_CODE":"SC300","SCH_RANK":null,"POSTCODE":"529593"},"geometry":{"type":"Point","coordinates":[103.93044597832176,1.3497953237244786]}},{"type":"Feature","properties":{"SCH_NAME":"ST. ANDREW'S JUNIOR COLLEGE","ADDRESS":"5 Sorby Adams Drive","SCH_TYPE":"JC","SCH_CODE":"SC011","SCH_RANK":null,"POSTCODE":"357691"},"geometry":{"type":"Point","coordinates":[103.86357637704839,1.3330651573424392]}},{"type":"Feature","properties":{"SCH_NAME":"ST. ANDREW'S JUNIOR SCHOOL","ADDRESS":"2 FRANCIS THOMAS DRIVE","SCH_TYPE":"primary","SCH_CODE":"SC193","SCH_RANK":null,"POSTCODE":"359337"},"geometry":{"type":"Point","coordinates":[103.86512893936903,1.3313891306155552]}},{"type":"Feature","properties":{"SCH_NAME":"ST. ANDREW'S SECONDARY SCHOOL","ADDRESS":"15 Francis Thomas Drive","SCH_TYPE":"secondary","SCH_CODE":"SC301","SCH_RANK":null,"POSTCODE":"359342"},"geometry":{"type":"Point","coordinates":[103.86594614035175,1.3309902743608137]}},{"type":"Feature","properties":{"SCH_NAME":"ST. ANTHONY'S CANOSSIAN PRIMARY SCHOOL","ADDRESS":"1602 BEDOK NORTH AVE 4","SCH_TYPE":"primary","SCH_CODE":"SC142","SCH_RANK":null,"POSTCODE":"469701"},"geometry":{"type":"Point","coordinates":[103.9412348678575,1.334725373357596]}},{"type":"Feature","properties":{"SCH_NAME":"ST. ANTHONY'S CANOSSIAN SECONDARY SCHOOL","ADDRESS":"1600 Bedok North Avenue 4","SCH_TYPE":"secondary","SCH_CODE":"SC302","SCH_RANK":null,"POSTCODE":"469700"},"geometry":{"type":"Point","coordinates":[103.94197716659829,1.334663134773447]}},{"type":"Feature","properties":{"SCH_NAME":"ST. ANTHONY'S PRIMARY SCHOOL","ADDRESS":"571 Jurong East Street 24","SCH_TYPE":"primary","SCH_CODE":"SC143","SCH_RANK":null,"POSTCODE":"609560"},"geometry":{"type":"Point","coordinates":[103.74405209933448,1.343410489431991]}},{"type":"Feature","properties":{"SCH_NAME":"ST. GABRIEL'S PRIMARY SCHOOL","ADDRESS":"220 Lorong Chuan","SCH_TYPE":"primary","SCH_CODE":"SC144","SCH_RANK":null,"POSTCODE":"556742"},"geometry":{"type":"Point","coordinates":[103.86233203336636,1.349337779718553]}},{"type":"Feature","properties":{"SCH_NAME":"ST. GABRIEL'S SECONDARY SCHOOL","ADDRESS":"24 SERANGOON AVENUE 1","SCH_TYPE":"secondary","SCH_CODE":"SC303","SCH_RANK":null,"POSTCODE":"556140"},"geometry":{"type":"Point","coordinates":[103.87580841929451,1.3463828571562486]}},{"type":"Feature","properties":{"SCH_NAME":"ST. HILDA'S PRIMARY SCHOOL","ADDRESS":"860 NEW UPPER CHANGI ROAD","SCH_TYPE":"primary","SCH_CODE":"SC145","SCH_RANK":"1","POSTCODE":"467353"},"geometry":{"type":"Point","coordinates":[103.93894302554267,1.3240231028361005]}},{"type":"Feature","properties":{"SCH_NAME":"ST. HILDA'S SECONDARY SCHOOL","ADDRESS":"2 TAMPINES STREET 82","SCH_TYPE":"secondary","SCH_CODE":"SC304","SCH_RANK":null,"POSTCODE":"528986"},"geometry":{"type":"Point","coordinates":[103.93665468858256,1.3503757676607206]}},{"type":"Feature","properties":{"SCH_NAME":"ST. JOSEPH'S INSTITUTION","ADDRESS":"38 MALCOLM ROAD","SCH_TYPE":"secondary","SCH_CODE":"SC368","SCH_RANK":"IP","POSTCODE":"308274"},"geometry":{"type":"Point","coordinates":[103.82851736996717,1.323610419288739]}},{"type":"Feature","properties":{"SCH_NAME":"ST. JOSEPH'S INSTITUTION JUNIOR","ADDRESS":"3 ESSEX ROAD","SCH_TYPE":"primary","SCH_CODE":"SC194","SCH_RANK":null,"POSTCODE":"309331"},"geometry":{"type":"Point","coordinates":[103.8456700815619,1.3177022531335725]}},{"type":"Feature","properties":{"SCH_NAME":"ST. MARGARET'S PRIMARY SCHOOL","ADDRESS":"99 WILKIE ROAD","SCH_TYPE":"primary","SCH_CODE":"SC146","SCH_RANK":null,"POSTCODE":"228091"},"geometry":{"type":"Point","coordinates":[103.84627782249606,1.3037759705415473]}},{"type":"Feature","properties":{"SCH_NAME":"ST. MARGARET'S SECONDARY SCHOOL","ADDRESS":"111 FARRER ROAD","SCH_TYPE":"secondary","SCH_CODE":"SC305","SCH_RANK":null,"POSTCODE":"259240"},"geometry":{"type":"Point","coordinates":[103.80960221566183,1.319774640054079]}},{"type":"Feature","properties":{"SCH_NAME":"ST. PATRICK'S SCHOOL","ADDRESS":"490 EAST COAST ROAD","SCH_TYPE":"secondary","SCH_CODE":"SC369","SCH_RANK":null,"POSTCODE":"429058"},"geometry":{"type":"Point","coordinates":[103.91746175632576,1.3080178599393557]}},{"type":"Feature","properties":{"SCH_NAME":"ST. STEPHEN'S SCHOOL","ADDRESS":"20 SIGLAP VIEW","SCH_TYPE":"primary","SCH_CODE":"SC195","SCH_RANK":null,"POSTCODE":"455789"},"geometry":{"type":"Point","coordinates":[103.91725812934786,1.3187899728990378]}},{"type":"Feature","properties":{"SCH_NAME":"STAMFORD PRIMARY SCHOOL","ADDRESS":"1 VICTORIA LANE","SCH_TYPE":"primary","SCH_CODE":"SC147","SCH_RANK":null,"POSTCODE":"198423"},"geometry":{"type":"Point","coordinates":[103.85701259137137,1.303747121418836]}},{"type":"Feature","properties":{"SCH_NAME":"SWISS COTTAGE SECONDARY SCHOOL","ADDRESS":"3 BUKIT BATOK STREET 34","SCH_TYPE":"secondary","SCH_CODE":"SC306","SCH_RANK":null,"POSTCODE":"659322"},"geometry":{"type":"Point","coordinates":[103.75039613683322,1.3647174269258977]}},{"type":"Feature","properties":{"SCH_NAME":"TAMPINES JUNIOR COLLEGE","ADDRESS":"2 TAMPINES AVENUE 9","SCH_TYPE":"JC","SCH_CODE":"SC012","SCH_RANK":null,"POSTCODE":"529564"},"geometry":{"type":"Point","coordinates":[103.95618593672931,1.3572801723869807]}},{"type":"Feature","properties":{"SCH_NAME":"TAMPINES NORTH PRIMARY SCHOOL","ADDRESS":"30 TAMPINES AVENUE 9","SCH_TYPE":"primary","SCH_CODE":"SC148","SCH_RANK":null,"POSTCODE":"529565"},"geometry":{"type":"Point","coordinates":[103.94893679748446,1.3606917195964663]}},{"type":"Feature","properties":{"SCH_NAME":"TAMPINES PRIMARY SCHOOL","ADDRESS":"250 TAMPINES STREET 12","SCH_TYPE":"primary","SCH_CODE":"SC149","SCH_RANK":"1","POSTCODE":"529426"},"geometry":{"type":"Point","coordinates":[103.94400468513417,1.3497787083030643]}},{"type":"Feature","properties":{"SCH_NAME":"TAMPINES SECONDARY SCHOOL","ADDRESS":"252 TAMPINES ST 12","SCH_TYPE":"secondary","SCH_CODE":"SC307","SCH_RANK":null,"POSTCODE":"529427"},"geometry":{"type":"Point","coordinates":[103.94426249675772,1.3493031843656085]}},{"type":"Feature","properties":{"SCH_NAME":"TANGLIN SECONDARY SCHOOL","ADDRESS":"301 WEST COAST ROAD","SCH_TYPE":"secondary","SCH_CODE":"SC308","SCH_RANK":null,"POSTCODE":"127391"},"geometry":{"type":"Point","coordinates":[103.75815835882658,1.3097016926658414]}},{"type":"Feature","properties":{"SCH_NAME":"TANJONG KATONG GIRLS' SCHOOL","ADDRESS":"20 DUNMAN LANE","SCH_TYPE":"secondary","SCH_CODE":"SC370","SCH_RANK":null,"POSTCODE":"439272"},"geometry":{"type":"Point","coordinates":[103.89610720419232,1.3075626188010179]}},{"type":"Feature","properties":{"SCH_NAME":"TANJONG KATONG PRIMARY SCHOOL","ADDRESS":"10 SERAYA ROAD","SCH_TYPE":"primary","SCH_CODE":"SC150","SCH_RANK":null,"POSTCODE":"437259"},"geometry":{"type":"Point","coordinates":[103.90012825462556,1.3052817731360653]}},{"type":"Feature","properties":{"SCH_NAME":"TANJONG KATONG SECONDARY SCHOOL","ADDRESS":"130 HAIG ROAD","SCH_TYPE":"secondary","SCH_CODE":"SC309","SCH_RANK":null,"POSTCODE":"438796"},"geometry":{"type":"Point","coordinates":[103.89733012126304,1.3085833743242965]}},{"type":"Feature","properties":{"SCH_NAME":"TAO NAN SCHOOL","ADDRESS":"2 BEDOK SOUTH ROAD","SCH_TYPE":"primary","SCH_CODE":"SC196","SCH_RANK":"1","POSTCODE":"469268"},"geometry":{"type":"Point","coordinates":[103.92707695560881,1.3220457473533977]}},{"type":"Feature","properties":{"SCH_NAME":"TECK GHEE PRIMARY SCHOOL","ADDRESS":"1 ANG MO KIO STREET 32","SCH_TYPE":"primary","SCH_CODE":"SC151","SCH_RANK":null,"POSTCODE":"569299"},"geometry":{"type":"Point","coordinates":[103.85103216281104,1.3652006310770073]}},{"type":"Feature","properties":{"SCH_NAME":"TECK WHYE PRIMARY SCHOOL","ADDRESS":"11 TECK WHYE WALK","SCH_TYPE":"primary","SCH_CODE":"SC152","SCH_RANK":null,"POSTCODE":"688261"},"geometry":{"type":"Point","coordinates":[103.75334956205296,1.3836562259172271]}},{"type":"Feature","properties":{"SCH_NAME":"TECK WHYE SECONDARY SCHOOL","ADDRESS":"31 TECK WHYE CRESCENT TECK WHYE SECONDARY SCHOOL","SCH_TYPE":"secondary","SCH_CODE":"SC310","SCH_RANK":null,"POSTCODE":"688848"},"geometry":{"type":"Point","coordinates":[103.75559290353969,1.3830098710803043]}},{"type":"Feature","properties":{"SCH_NAME":"TELOK KURAU PRIMARY SCHOOL","ADDRESS":"50 BEDOK RESERVOIR RD","SCH_TYPE":"primary","SCH_CODE":"SC153","SCH_RANK":null,"POSTCODE":"479239"},"geometry":{"type":"Point","coordinates":[103.91134913980537,1.3309134711813193]}},{"type":"Feature","properties":{"SCH_NAME":"TEMASEK JUNIOR COLLEGE","ADDRESS":"22 BEDOK SOUTH ROAD","SCH_TYPE":"JC","SCH_CODE":"SC013","SCH_RANK":null,"POSTCODE":"469278"},"geometry":{"type":"Point","coordinates":[103.93559797030626,1.3184619058656475]}},{"type":"Feature","properties":{"SCH_NAME":"TEMASEK PRIMARY SCHOOL","ADDRESS":"501 BEDOK SOUTH AVE 3","SCH_TYPE":"primary","SCH_CODE":"SC154","SCH_RANK":"1","POSTCODE":"469300"},"geometry":{"type":"Point","coordinates":[103.94559066882971,1.317706775452107]}},{"type":"Feature","properties":{"SCH_NAME":"TEMASEK SECONDARY SCHOOL","ADDRESS":"600 UPPER EAST COAST ROAD","SCH_TYPE":"secondary","SCH_CODE":"SC311","SCH_RANK":null,"POSTCODE":"465561"},"geometry":{"type":"Point","coordinates":[103.94761579534573,1.3166767663191445]}},{"type":"Feature","properties":{"SCH_NAME":"TOWNSVILLE PRIMARY SCHOOL","ADDRESS":"3 ANG MO KIO AVE 10","SCH_TYPE":"primary","SCH_CODE":"SC155","SCH_RANK":null,"POSTCODE":"569730"},"geometry":{"type":"Point","coordinates":[103.85388120564785,1.3603147811453113]}},{"type":"Feature","properties":{"SCH_NAME":"UNITY PRIMARY SCHOOL","ADDRESS":"21 CHOA CHU KANG CRESCENT","SCH_TYPE":"primary","SCH_CODE":"SC156","SCH_RANK":null,"POSTCODE":"688268"},"geometry":{"type":"Point","coordinates":[103.7469934196455,1.4028233892659727]}},{"type":"Feature","properties":{"SCH_NAME":"UNITY SECONDARY SCHOOL","ADDRESS":"20 CHOA CHU KANG STREET 62","SCH_TYPE":"secondary","SCH_CODE":"SC312","SCH_RANK":null,"POSTCODE":"689143"},"geometry":{"type":"Point","coordinates":[103.74602584401597,1.400028932999364]}},{"type":"Feature","properties":{"SCH_NAME":"VICTORIA JUNIOR COLLEGE","ADDRESS":"20 MARINE VISTA","SCH_TYPE":"JC","SCH_CODE":"SC014","SCH_RANK":null,"POSTCODE":"449035"},"geometry":{"type":"Point","coordinates":[103.91992064043163,1.3067547604105056]}},{"type":"Feature","properties":{"SCH_NAME":"VICTORIA SCHOOL","ADDRESS":"2 Siglap Link","SCH_TYPE":"secondary","SCH_CODE":"SC371","SCH_RANK":"IP","POSTCODE":"448880"},"geometry":{"type":"Point","coordinates":[103.92761150967564,1.3083568240244148]}},{"type":"Feature","properties":{"SCH_NAME":"WELLINGTON PRIMARY SCHOOL","ADDRESS":"10 WELLINGTON CIRCLE","SCH_TYPE":"primary","SCH_CODE":"SC157","SCH_RANK":null,"POSTCODE":"757702"},"geometry":{"type":"Point","coordinates":[103.82230626935066,1.4518860559472107]}},{"type":"Feature","properties":{"SCH_NAME":"WEST GROVE PRIMARY SCHOOL","ADDRESS":"1 JURONG WEST ST 72","SCH_TYPE":"primary","SCH_CODE":"SC158","SCH_RANK":null,"POSTCODE":"649223"},"geometry":{"type":"Point","coordinates":[103.69896420493437,1.3447121222291956]}},{"type":"Feature","properties":{"SCH_NAME":"WEST SPRING PRIMARY SCHOOL","ADDRESS":"60 Bukit Panjang Ring Road","SCH_TYPE":"primary","SCH_CODE":"SC159","SCH_RANK":null,"POSTCODE":"679946"},"geometry":{"type":"Point","coordinates":[103.7660772751756,1.3894631183651813]}},{"type":"Feature","properties":{"SCH_NAME":"WEST SPRING SECONDARY SCHOOL","ADDRESS":"61 SENJA ROAD","SCH_TYPE":"secondary","SCH_CODE":"SC313","SCH_RANK":null,"POSTCODE":"677737"},"geometry":{"type":"Point","coordinates":[103.76014745180484,1.3878043385260723]}},{"type":"Feature","properties":{"SCH_NAME":"WEST VIEW PRIMARY SCHOOL","ADDRESS":"31 SENJA ROAD","SCH_TYPE":"primary","SCH_CODE":"SC160","SCH_RANK":null,"POSTCODE":"677742"},"geometry":{"type":"Point","coordinates":[103.76024043454476,1.3836758201865573]}},{"type":"Feature","properties":{"SCH_NAME":"WESTWOOD PRIMARY SCHOOL","ADDRESS":"1 Jurong West Street 73","SCH_TYPE":"primary","SCH_CODE":"SC161","SCH_RANK":null,"POSTCODE":"649188"},"geometry":{"type":"Point","coordinates":[103.70053420985603,1.3471845662470474]}},{"type":"Feature","properties":{"SCH_NAME":"WESTWOOD SECONDARY SCHOOL","ADDRESS":"11 JURONG WEST STREET 25","SCH_TYPE":"secondary","SCH_CODE":"SC314","SCH_RANK":null,"POSTCODE":"648350"},"geometry":{"type":"Point","coordinates":[103.70169463412954,1.353578782095784]}},{"type":"Feature","properties":{"SCH_NAME":"WHITE SANDS PRIMARY SCHOOL","ADDRESS":"2 PASIR RIS ST 11","SCH_TYPE":"primary","SCH_CODE":"SC162","SCH_RANK":null,"POSTCODE":"519075"},"geometry":{"type":"Point","coordinates":[103.96091886972552,1.3655571469055323]}},{"type":"Feature","properties":{"SCH_NAME":"WHITLEY SECONDARY SCHOOL","ADDRESS":"30 Bishan Street 24","SCH_TYPE":"secondary","SCH_CODE":"SC315","SCH_RANK":null,"POSTCODE":"579747"},"geometry":{"type":"Point","coordinates":[103.84256388141117,1.3554946237124283]}},{"type":"Feature","properties":{"SCH_NAME":"WOODGROVE PRIMARY SCHOOL","ADDRESS":"2 WOODLANDS DRIVE 14 WOODGROVE PRIMARY SCHOOL","SCH_TYPE":"primary","SCH_CODE":"SC163","SCH_RANK":null,"POSTCODE":"738079"},"geometry":{"type":"Point","coordinates":[103.79038962046401,1.4330580606073715]}},{"type":"Feature","properties":{"SCH_NAME":"WOODGROVE SECONDARY SCHOOL","ADDRESS":"3 WOODLANDS AVENUE 6","SCH_TYPE":"secondary","SCH_CODE":"SC316","SCH_RANK":null,"POSTCODE":"738990"},"geometry":{"type":"Point","coordinates":[103.7963040051442,1.4286283147283483]}},{"type":"Feature","properties":{"SCH_NAME":"WOODLANDS PRIMARY SCHOOL","ADDRESS":"10 WOODLANDS DRIVE 50","SCH_TYPE":"primary","SCH_CODE":"SC164","SCH_RANK":null,"POSTCODE":"738853"},"geometry":{"type":"Point","coordinates":[103.79157273433923,1.4365503113753895]}},{"type":"Feature","properties":{"SCH_NAME":"WOODLANDS RING PRIMARY SCHOOL","ADDRESS":"11 WOODLANDS RING ROAD","SCH_TYPE":"primary","SCH_CODE":"SC165","SCH_RANK":null,"POSTCODE":"738240"},"geometry":{"type":"Point","coordinates":[103.7978411266928,1.434769704360816]}},{"type":"Feature","properties":{"SCH_NAME":"WOODLANDS RING SECONDARY SCHOOL","ADDRESS":"10 WOODLANDS RING ROAD","SCH_TYPE":"secondary","SCH_CODE":"SC317","SCH_RANK":null,"POSTCODE":"738239"},"geometry":{"type":"Point","coordinates":[103.80052052812204,1.4361136787005016]}},{"type":"Feature","properties":{"SCH_NAME":"WOODLANDS SECONDARY SCHOOL","ADDRESS":"11 MARSILING ROAD Woodlands Secondary School","SCH_TYPE":"secondary","SCH_CODE":"SC318","SCH_RANK":null,"POSTCODE":"739111"},"geometry":{"type":"Point","coordinates":[103.77449878236983,1.4391833169839743]}},{"type":"Feature","properties":{"SCH_NAME":"XINGHUA PRIMARY SCHOOL","ADDRESS":"45 HOUGANG AVENUE 1","SCH_TYPE":"primary","SCH_CODE":"SC166","SCH_RANK":null,"POSTCODE":"538882"},"geometry":{"type":"Point","coordinates":[103.8904650476084,1.3579089360106935]}},{"type":"Feature","properties":{"SCH_NAME":"XINGNAN PRIMARY SCHOOL","ADDRESS":"5 JURONG WEST STREET 91","SCH_TYPE":"primary","SCH_CODE":"SC167","SCH_RANK":null,"POSTCODE":"649036"},"geometry":{"type":"Point","coordinates":[103.68795025244809,1.3425474485222055]}},{"type":"Feature","properties":{"SCH_NAME":"XINMIN PRIMARY SCHOOL","ADDRESS":"9 HOUGANG AVENUE 8","SCH_TYPE":"primary","SCH_CODE":"SC168","SCH_RANK":null,"POSTCODE":"538784"},"geometry":{"type":"Point","coordinates":[103.88307837189502,1.3713967793517536]}},{"type":"Feature","properties":{"SCH_NAME":"XINMIN SECONDARY SCHOOL","ADDRESS":"11 Hougang Avenue 8","SCH_TYPE":"secondary","SCH_CODE":"SC319","SCH_RANK":null,"POSTCODE":"538789"},"geometry":{"type":"Point","coordinates":[103.88275217134255,1.3721582488270847]}},{"type":"Feature","properties":{"SCH_NAME":"XISHAN PRIMARY SCHOOL","ADDRESS":"8 YISHUN STREET 21","SCH_TYPE":"primary","SCH_CODE":"SC169","SCH_RANK":null,"POSTCODE":"768611"},"geometry":{"type":"Point","coordinates":[103.83778366991938,1.433473123875324]}},{"type":"Feature","properties":{"SCH_NAME":"YANGZHENG PRIMARY SCHOOL","ADDRESS":"15 SERANGOON AVENUE 3","SCH_TYPE":"primary","SCH_CODE":"SC170","SCH_RANK":null,"POSTCODE":"556108"},"geometry":{"type":"Point","coordinates":[103.86836252195901,1.3489720237836766]}},{"type":"Feature","properties":{"SCH_NAME":"YEW TEE PRIMARY SCHOOL","ADDRESS":"10 CHOA CHU KANG ST 64","SCH_TYPE":"primary","SCH_CODE":"SC171","SCH_RANK":null,"POSTCODE":"689100"},"geometry":{"type":"Point","coordinates":[103.7511946050911,1.3969613918688086]}},{"type":"Feature","properties":{"SCH_NAME":"YIO CHU KANG PRIMARY SCHOOL","ADDRESS":"1 HOUGANG STREET 51","SCH_TYPE":"primary","SCH_CODE":"SC172","SCH_RANK":null,"POSTCODE":"538720"},"geometry":{"type":"Point","coordinates":[103.88556871481333,1.37782270969368]}},{"type":"Feature","properties":{"SCH_NAME":"YIO CHU KANG SECONDARY SCHOOL","ADDRESS":"3063 ANG MO KIO AVENUE 5","SCH_TYPE":"secondary","SCH_CODE":"SC320","SCH_RANK":null,"POSTCODE":"569868"},"geometry":{"type":"Point","coordinates":[103.84183745815689,1.377745706044713]}},{"type":"Feature","properties":{"SCH_NAME":"YISHUN JUNIOR COLLEGE","ADDRESS":"3 YISHUN RING ROAD","SCH_TYPE":"JC","SCH_CODE":"SC015","SCH_RANK":null,"POSTCODE":"768675"},"geometry":{"type":"Point","coordinates":[103.82963435912129,1.4246188453617092]}},{"type":"Feature","properties":{"SCH_NAME":"YISHUN PRIMARY SCHOOL","ADDRESS":"500 YISHUN RING ROAD","SCH_TYPE":"primary","SCH_CODE":"SC173","SCH_RANK":null,"POSTCODE":"768679"},"geometry":{"type":"Point","coordinates":[103.83408711580879,1.4333860297292877]}},{"type":"Feature","properties":{"SCH_NAME":"YISHUN SECONDARY SCHOOL","ADDRESS":"4 YISHUN STREET 71","SCH_TYPE":"secondary","SCH_CODE":"SC321","SCH_RANK":null,"POSTCODE":"768516"},"geometry":{"type":"Point","coordinates":[103.82881480925776,1.4281320116584906]}},{"type":"Feature","properties":{"SCH_NAME":"YISHUN TOWN SECONDARY SCHOOL","ADDRESS":"6 YISHUN STREET 21","SCH_TYPE":"secondary","SCH_CODE":"SC322","SCH_RANK":null,"POSTCODE":"768610"},"geometry":{"type":"Point","coordinates":[103.83809422633509,1.4323215669822553]}},{"type":"Feature","properties":{"SCH_NAME":"YU NENG PRIMARY SCHOOL","ADDRESS":"56 BEDOK NORTH ST 3","SCH_TYPE":"primary","SCH_CODE":"SC174","SCH_RANK":null,"POSTCODE":"469623"},"geometry":{"type":"Point","coordinates":[103.93203405314732,1.333903808245885]}},{"type":"Feature","properties":{"SCH_NAME":"YUAN CHING SECONDARY SCHOOL","ADDRESS":"103 YUAN CHING ROAD","SCH_TYPE":"secondary","SCH_CODE":"SC323","SCH_RANK":null,"POSTCODE":"618654"},"geometry":{"type":"Point","coordinates":[103.72063079097161,1.3418918716430965]}},{"type":"Feature","properties":{"SCH_NAME":"YUHUA PRIMARY SCHOOL","ADDRESS":"158 JURONG EAST STREET 24","SCH_TYPE":"primary","SCH_CODE":"SC175","SCH_RANK":null,"POSTCODE":"609558"},"geometry":{"type":"Point","coordinates":[103.74091821016236,1.3427260024839325]}},{"type":"Feature","properties":{"SCH_NAME":"YUHUA SECONDARY SCHOOL","ADDRESS":"247 JALAN BOON LAY","SCH_TYPE":"secondary","SCH_CODE":"SC324","SCH_RANK":null,"POSTCODE":"619522"},"geometry":{"type":"Point","coordinates":[103.70980410639308,1.341851711904076]}},{"type":"Feature","properties":{"SCH_NAME":"YUMIN PRIMARY SCHOOL","ADDRESS":"3 TAMPINES STREET 21","SCH_TYPE":"primary","SCH_CODE":"SC176","SCH_RANK":null,"POSTCODE":"529393"},"geometry":{"type":"Point","coordinates":[103.95046192680428,1.3512917768962884]}},{"type":"Feature","properties":{"SCH_NAME":"YUSOF ISHAK SECONDARY SCHOOL","ADDRESS":"11 BUKIT BATOK STREET 25","SCH_TYPE":"secondary","SCH_CODE":"SC325","SCH_RANK":null,"POSTCODE":"658712"},"geometry":{"type":"Point","coordinates":[103.76003262829417,1.3423392141217751]}},{"type":"Feature","properties":{"SCH_NAME":"YUYING SECONDARY SCHOOL","ADDRESS":"47 HOUGANG AVENUE 1","SCH_TYPE":"secondary","SCH_CODE":"SC326","SCH_RANK":null,"POSTCODE":"538884"},"geometry":{"type":"Point","coordinates":[103.89045762413494,1.356933603203476]}},{"type":"Feature","properties":{"SCH_NAME":"ZHANGDE PRIMARY SCHOOL","ADDRESS":"51 Jalan Membina","SCH_TYPE":"primary","SCH_CODE":"SC177","SCH_RANK":null,"POSTCODE":"169485"},"geometry":{"type":"Point","coordinates":[103.8261489775843,1.284498220028072]}},{"type":"Feature","properties":{"SCH_NAME":"ZHENGHUA PRIMARY SCHOOL","ADDRESS":"9 Fajar Road","SCH_TYPE":"primary","SCH_CODE":"SC178","SCH_RANK":null,"POSTCODE":"679002"},"geometry":{"type":"Point","coordinates":[103.76931352136369,1.3795488749978242]}},{"type":"Feature","properties":{"SCH_NAME":"ZHENGHUA SECONDARY SCHOOL","ADDRESS":"91 SENJA ROAD","SCH_TYPE":"secondary","SCH_CODE":"SC327","SCH_RANK":null,"POSTCODE":"677741"},"geometry":{"type":"Point","coordinates":[103.7652523062056,1.3881970227658778]}},{"type":"Feature","properties":{"SCH_NAME":"ZHONGHUA PRIMARY SCHOOL","ADDRESS":"12 SERANGOON AVENUE 4 ZHONGHUA PRIMARY SCHOOL","SCH_TYPE":"primary","SCH_CODE":"SC179","SCH_RANK":null,"POSTCODE":"556095"},"geometry":{"type":"Point","coordinates":[103.8697672352928,1.360195447849702]}},{"type":"Feature","properties":{"SCH_NAME":"ZHONGHUA SECONDARY SCHOOL","ADDRESS":"13 SERANGOON AVENUE 3","SCH_TYPE":"secondary","SCH_CODE":"SC328","SCH_RANK":null,"POSTCODE":"556123"},"geometry":{"type":"Point","coordinates":[103.86980003418986,1.349097360984686]}}]}